{
"type": "FeatureCollection",
"name": "LI",
"crs": { "type": "name", "properties": { "name": "urn:ogc:def:crs:OGC:1.3:CRS84" } },
"features": [
{ "type": "Feature", "properties": { "GISCO_ID": "LI_LI00001001", "CNTR_CODE": "LI", "LAU_ID": "LI00001001", "LAU_NAME": "Vaduz", "cell_coverage": [ [ 0, 0.0829, 0.0108, 0 ], [ 0.0075, 0.6012, 0.1027, 0.0712 ], [ 0, 0.0247, 0, 0.2454 ] ], "xmin": 9.4583333333333286, "xmax": 9.625, "ymin": 47.083333333333321, "ymax": 47.208333333333321 }, "geometry": { "type": "MultiPolygon", "coordinates": [ [ [ [ 9.585269500000038, 47.111651499000061 ], [ 9.589119500000038, 47.111363499000049 ], [ 9.593373500000041, 47.110293999000078 ], [ 9.596262, 47.113289999000074 ], [ 9.602269500000034, 47.111908499000037 ], [ 9.598329, 47.108985999000026 ], [ 9.600387, 47.107723499000031 ], [ 9.601885, 47.105985499000042 ], [ 9.603409, 47.104885999000032 ], [ 9.605557500000032, 47.10391899900003 ], [ 9.607476500000075, 47.100220499000045 ], [ 9.611678, 47.097558499000058 ], [ 9.609770500000025, 47.096019499000079 ], [ 9.607083, 47.088214999000058 ], [ 9.605521, 47.087056499000028 ], [ 9.598848, 47.089179999000066 ], [ 9.590575, 47.090189999000074 ], [ 9.584922500000062, 47.100373999000055 ], [ 9.587978, 47.099668999000073 ], [ 9.585269500000038, 47.111651499000061 ] ] ], [ [ [ 9.601909500000033, 47.140196499000069 ], [ 9.607414475000041, 47.135995619000028 ], [ 9.610632500000065, 47.12831649900005 ], [ 9.605433, 47.128198499000064 ], [ 9.603852500000073, 47.129874999000037 ], [ 9.60115, 47.130528999000035 ], [ 9.593060500000036, 47.130365999000048 ], [ 9.591331, 47.131612999000026 ], [ 9.591546500000049, 47.13402049900003 ], [ 9.595423, 47.135000499000057 ], [ 9.601909500000033, 47.140196499000069 ] ] ], [ [ [ 9.551475500000038, 47.189489999000045 ], [ 9.550770500000056, 47.190024999000059 ], [ 9.551479500000028, 47.190929999000048 ], [ 9.555411500000048, 47.190227499000059 ], [ 9.557721500000071, 47.187557999000035 ], [ 9.555206, 47.185363499000061 ], [ 9.551475500000038, 47.189489999000045 ] ] ], [ [ [ 9.556784500000049, 47.16124699900007 ], [ 9.551692850000052, 47.148271806000025 ], [ 9.540332142000068, 47.146292006000067 ], [ 9.531596954000065, 47.137860886000055 ], [ 9.531036644000039, 47.131936221000046 ], [ 9.53470044200003, 47.126762347000067 ], [ 9.532219, 47.124471999000036 ], [ 9.529404, 47.122606499000028 ], [ 9.525965500000041, 47.122668999000041 ], [ 9.51522, 47.121945999000047 ], [ 9.509821601000056, 47.138397309000027 ], [ 9.503737500000057, 47.147220999000069 ], [ 9.499402500000031, 47.151788999000075 ], [ 9.495433, 47.156943999000077 ], [ 9.516255556000033, 47.156079900000066 ], [ 9.524393258000032, 47.163051830000029 ], [ 9.556784500000049, 47.16124699900007 ] ] ], [ [ [ 9.520700926000075, 47.176260720000073 ], [ 9.523120935000065, 47.177996463000056 ], [ 9.530139249000058, 47.175844742000038 ], [ 9.527023566000025, 47.173549495000032 ], [ 9.520700926000075, 47.176260720000073 ] ] ], [ [ [ 9.507744500000058, 47.193883999000036 ], [ 9.515767500000038, 47.193136499000047 ], [ 9.518785, 47.181807999000057 ], [ 9.509299, 47.182221999000035 ], [ 9.504654500000072, 47.191474499000037 ], [ 9.50412, 47.194039499000041 ], [ 9.507744500000058, 47.193883999000036 ] ] ] ] } },
{ "type": "Feature", "properties": { "GISCO_ID": "LI_LI00001002", "CNTR_CODE": "LI", "LAU_ID": "LI00001002", "LAU_NAME": "Triesen", "cell_coverage": [ [ 0.5142, 0.2842, 0.0587 ], [ 0.1087, 0.6085, 0.209 ] ], "xmin": 9.5, "xmax": 9.625, "ymin": 47.04166666666665, "ymax": 47.125 }, "geometry": { "type": "MultiPolygon", "coordinates": [ [ [ [ 9.578513500000042, 47.088705999000069 ], [ 9.581190500000048, 47.089762999000072 ], [ 9.580894500000056, 47.091585999000074 ], [ 9.576521500000069, 47.099207999000043 ], [ 9.584922500000062, 47.100373999000055 ], [ 9.590575, 47.090189999000074 ], [ 9.597729757000025, 47.067477526000062 ], [ 9.602818, 47.061893999000063 ], [ 9.587708, 47.055177499000081 ], [ 9.55685150000005, 47.049326499000074 ], [ 9.551390949000051, 47.058356178000054 ], [ 9.539751500000023, 47.065144499000041 ], [ 9.531705113000044, 47.076434433000031 ], [ 9.512247, 47.085359499000049 ], [ 9.514393, 47.086678999000071 ], [ 9.515607, 47.088430499000026 ], [ 9.519491500000072, 47.097195999000064 ], [ 9.520344, 47.100149999000053 ], [ 9.52005, 47.103430499000069 ], [ 9.517156500000056, 47.115126499000041 ], [ 9.51522, 47.121945999000047 ], [ 9.525965500000041, 47.122668999000041 ], [ 9.529404, 47.122606499000028 ], [ 9.532219, 47.124471999000036 ], [ 9.53664, 47.115818669000078 ], [ 9.542261603000043, 47.112310941000032 ], [ 9.541519539000035, 47.102682424000079 ], [ 9.552286786000025, 47.10126957600005 ], [ 9.56270679000005, 47.094446518000041 ], [ 9.567917261000048, 47.094879968000043 ], [ 9.572145, 47.087591499000041 ], [ 9.566805136000028, 47.08485461600003 ], [ 9.565550246000043, 47.078664297000046 ], [ 9.570194590000028, 47.073830624000038 ], [ 9.57627569400006, 47.072369994000042 ], [ 9.584687214000041, 47.07633239300003 ], [ 9.578513500000042, 47.088705999000069 ] ] ] ] } },
{ "type": "Feature", "properties": { "GISCO_ID": "LI_LI00001003", "CNTR_CODE": "LI", "LAU_ID": "LI00001003", "LAU_NAME": "Balzers", "cell_coverage": [ [ 0, 0, 0.0022, 0.4531, 0.0247 ], [ 0, 0.0048, 0.0289, 0.0353, 0.012 ], [ 0.2655, 0.4294, 0.0887, 0.0013, 0 ] ], "xmin": 9.4583333333333286, "xmax": 9.6666666666666625, "ymin": 47.041666666666657, "ymax": 47.166666666666657 }, "geometry": { "type": "MultiPolygon", "coordinates": [ [ [ [ 9.610632500000065, 47.12831649900005 ], [ 9.607414475000041, 47.135995619000028 ], [ 9.601909500000033, 47.140196499000069 ], [ 9.581967, 47.14670699900006 ], [ 9.584505500000034, 47.156062999000028 ], [ 9.590928, 47.164684999000031 ], [ 9.598353968000026, 47.161253693000049 ], [ 9.602718503000062, 47.152357383000037 ], [ 9.607843079000077, 47.148527773000069 ], [ 9.614124310000022, 47.148023027000079 ], [ 9.620580500000074, 47.15164549900004 ], [ 9.624739437000073, 47.145847366000055 ], [ 9.625419177000026, 47.132959043000028 ], [ 9.633284511000056, 47.12726335900004 ], [ 9.624738500000035, 47.117995499000074 ], [ 9.61268350000006, 47.122329999000044 ], [ 9.610632500000065, 47.12831649900005 ] ] ], [ [ [ 9.572145, 47.087591499000041 ], [ 9.574584, 47.086970499000074 ], [ 9.578513500000042, 47.088705999000069 ], [ 9.584687214000041, 47.07633239300003 ], [ 9.57627569400006, 47.072369994000042 ], [ 9.570194590000028, 47.073830624000038 ], [ 9.565550246000043, 47.078664297000046 ], [ 9.566805136000028, 47.08485461600003 ], [ 9.572145, 47.087591499000041 ] ] ], [ [ [ 9.47604750000005, 47.051797499000031 ], [ 9.472858927000061, 47.060663581000028 ], [ 9.474911, 47.065890499000034 ], [ 9.512247, 47.085359499000049 ], [ 9.531705113000044, 47.076434433000031 ], [ 9.539751500000023, 47.065144499000041 ], [ 9.530543, 47.063036499000077 ], [ 9.511805123000045, 47.057609494000076 ], [ 9.492115828000067, 47.056362053000043 ], [ 9.485263343000042, 47.050920787000052 ], [ 9.47957163500007, 47.055726642000081 ], [ 9.47604750000005, 47.051797499000031 ] ] ] ] } },
{ "type": "Feature", "properties": { "GISCO_ID": "LI_LI00001004", "CNTR_CODE": "LI", "LAU_ID": "LI00001004", "LAU_NAME": "Triesenberg", "cell_coverage": [ [ 0, 0.0001, 0, 0 ], [ 0.0974, 0.7195, 0.0048, 0 ], [ 0.0435, 0.6869, 0.3452, 0.1094 ], [ 0, 0, 0.0325, 0.004 ] ], "xmin": 9.5, "xmax": 9.6666666666666661, "ymin": 47.041666666666657, "ymax": 47.208333333333321 }, "geometry": { "type": "MultiPolygon", "coordinates": [ [ [ [ 9.620834, 47.110545499000068 ], [ 9.634033187000057, 47.100800783000068 ], [ 9.635051213000054, 47.09054466200007 ], [ 9.63230395000005, 47.083695891000048 ], [ 9.618149008000046, 47.078663973000062 ], [ 9.611517500000048, 47.079411999000058 ], [ 9.610332500000027, 47.082250499000054 ], [ 9.605958, 47.084186999000053 ], [ 9.605521, 47.087056499000028 ], [ 9.607083, 47.088214999000058 ], [ 9.609770500000025, 47.096019499000079 ], [ 9.611678, 47.097558499000058 ], [ 9.607476500000075, 47.100220499000045 ], [ 9.605557500000032, 47.10391899900003 ], [ 9.603409, 47.104885999000032 ], [ 9.601885, 47.105985499000042 ], [ 9.600387, 47.107723499000031 ], [ 9.598329, 47.108985999000026 ], [ 9.602269500000034, 47.111908499000037 ], [ 9.604795500000023, 47.110825999000042 ], [ 9.614649, 47.11198949900006 ], [ 9.618091, 47.110412499000063 ], [ 9.620834, 47.110545499000068 ] ] ], [ [ [ 9.556784500000049, 47.16124699900007 ], [ 9.560681500000044, 47.167032499000072 ], [ 9.563913, 47.165011499000059 ], [ 9.573122, 47.163355999000032 ], [ 9.584505500000034, 47.156062999000028 ], [ 9.581967, 47.14670699900006 ], [ 9.571343520000028, 47.131945169000062 ], [ 9.587898643000074, 47.12525220200007 ], [ 9.585269500000038, 47.111651499000061 ], [ 9.587978, 47.099668999000073 ], [ 9.584922500000062, 47.100373999000055 ], [ 9.576521500000069, 47.099207999000043 ], [ 9.580894500000056, 47.091585999000074 ], [ 9.581190500000048, 47.089762999000072 ], [ 9.578513500000042, 47.088705999000069 ], [ 9.574584, 47.086970499000074 ], [ 9.572145, 47.087591499000041 ], [ 9.567917261000048, 47.094879968000043 ], [ 9.56270679000005, 47.094446518000041 ], [ 9.552286786000025, 47.10126957600005 ], [ 9.541519539000035, 47.102682424000079 ], [ 9.542261603000043, 47.112310941000032 ], [ 9.53664, 47.115818669000078 ], [ 9.532219, 47.124471999000036 ], [ 9.53470044200003, 47.126762347000067 ], [ 9.531036644000039, 47.131936221000046 ], [ 9.531596954000065, 47.137860886000055 ], [ 9.540332142000068, 47.146292006000067 ], [ 9.551692850000052, 47.148271806000025 ], [ 9.556784500000049, 47.16124699900007 ] ] ] ] } },
{ "type": "Feature", "properties": { "GISCO_ID": "LI_LI00001005", "CNTR_CODE": "LI", "LAU_ID": "LI00001005", "LAU_NAME": "Schaan", "cell_coverage": [ [ 0.1596, 0.5358, 0.1574, 0 ], [ 0.0376, 0.17, 0.1226, 0.1766 ], [ 0, 0, 0, 0.3022 ], [ 0, 0, 0, 0.1828 ] ], "xmin": 9.4583333333333286, "xmax": 9.625, "ymin": 47.041666666666657, "ymax": 47.208333333333321 }, "geometry": { "type": "MultiPolygon", "coordinates": [ [ [ [ 9.620834, 47.110545499000068 ], [ 9.618091, 47.110412499000063 ], [ 9.614649, 47.11198949900006 ], [ 9.604795500000023, 47.110825999000042 ], [ 9.602269500000034, 47.111908499000037 ], [ 9.596262, 47.113289999000074 ], [ 9.593373500000041, 47.110293999000078 ], [ 9.589119500000038, 47.111363499000049 ], [ 9.585269500000038, 47.111651499000061 ], [ 9.587898643000074, 47.12525220200007 ], [ 9.571343520000028, 47.131945169000062 ], [ 9.581967, 47.14670699900006 ], [ 9.601909500000033, 47.140196499000069 ], [ 9.595423, 47.135000499000057 ], [ 9.591546500000049, 47.13402049900003 ], [ 9.591331, 47.131612999000026 ], [ 9.593060500000036, 47.130365999000048 ], [ 9.60115, 47.130528999000035 ], [ 9.603852500000073, 47.129874999000037 ], [ 9.605433, 47.128198499000064 ], [ 9.610632500000065, 47.12831649900005 ], [ 9.61268350000006, 47.122329999000044 ], [ 9.624738500000035, 47.117995499000074 ], [ 9.620834, 47.110545499000068 ] ] ], [ [ [ 9.605521, 47.087056499000028 ], [ 9.605958, 47.084186999000053 ], [ 9.610332500000027, 47.082250499000054 ], [ 9.611517500000048, 47.079411999000058 ], [ 9.612583475000065, 47.068259097000066 ], [ 9.607078, 47.060774499000047 ], [ 9.602818, 47.061893999000063 ], [ 9.597729757000025, 47.067477526000062 ], [ 9.590575, 47.090189999000074 ], [ 9.598848, 47.089179999000066 ], [ 9.605521, 47.087056499000028 ] ] ], [ [ [ 9.556784500000049, 47.16124699900007 ], [ 9.524393258000032, 47.163051830000029 ], [ 9.516255556000033, 47.156079900000066 ], [ 9.495433, 47.156943999000077 ], [ 9.486333621000028, 47.177990063000038 ], [ 9.487608, 47.190294499000061 ], [ 9.493202010000061, 47.187864997000077 ], [ 9.50412, 47.194039499000041 ], [ 9.504654500000072, 47.191474499000037 ], [ 9.509299, 47.182221999000035 ], [ 9.518785, 47.181807999000057 ], [ 9.515767500000038, 47.193136499000047 ], [ 9.524455, 47.192502499000057 ], [ 9.526441614000021, 47.19099380800003 ], [ 9.529727473000037, 47.190851918000078 ], [ 9.531046, 47.191932999000073 ], [ 9.53182, 47.19181099900004 ], [ 9.539962, 47.191410499000028 ], [ 9.546804912000027, 47.192589086000055 ], [ 9.550770500000056, 47.190024999000059 ], [ 9.551475500000038, 47.189489999000045 ], [ 9.544553600000029, 47.188709168000059 ], [ 9.540421322000043, 47.185045718000026 ], [ 9.544388144000038, 47.176198796000051 ], [ 9.550359570000069, 47.176083408000068 ], [ 9.548049984000045, 47.179623396000068 ], [ 9.549895310000068, 47.18018449300007 ], [ 9.566631, 47.172701499000027 ], [ 9.564655, 47.170305499000051 ], [ 9.560681500000044, 47.167032499000072 ], [ 9.556784500000049, 47.16124699900007 ] ], [ [ 9.520700926000075, 47.176260720000073 ], [ 9.527023566000025, 47.173549495000032 ], [ 9.530139249000058, 47.175844742000038 ], [ 9.523120935000065, 47.177996463000056 ], [ 9.520700926000075, 47.176260720000073 ] ] ], [ [ [ 9.555206, 47.185363499000061 ], [ 9.557721500000071, 47.187557999000035 ], [ 9.560476, 47.18711999900006 ], [ 9.56046860500004, 47.18537150700007 ], [ 9.555206, 47.185363499000061 ] ] ] ] } },
{ "type": "Feature", "properties": { "GISCO_ID": "LI_LI00001006", "CNTR_CODE": "LI", "LAU_ID": "LI00001006", "LAU_NAME": "Planken", "cell_coverage": [ [ 0.005, 0.2573, 0.0023 ], [ 0, 0.0531, 0.028 ] ], "xmin": 9.5, "xmax": 9.625, "ymin": 47.125, "ymax": 47.208333333333321 }, "geometry": { "type": "MultiPolygon", "coordinates": [ [ [ [ 9.564655, 47.170305499000051 ], [ 9.579918780000071, 47.170517690000054 ], [ 9.590928, 47.164684999000031 ], [ 9.584505500000034, 47.156062999000028 ], [ 9.573122, 47.163355999000032 ], [ 9.563913, 47.165011499000059 ], [ 9.560681500000044, 47.167032499000072 ], [ 9.564655, 47.170305499000051 ] ] ], [ [ [ 9.565192500000023, 47.191216999000062 ], [ 9.573164500000075, 47.187838499000065 ], [ 9.572746046000077, 47.176512688000059 ], [ 9.566631, 47.172701499000027 ], [ 9.549895310000068, 47.18018449300007 ], [ 9.548049984000045, 47.179623396000068 ], [ 9.550359570000069, 47.176083408000068 ], [ 9.544388144000038, 47.176198796000051 ], [ 9.540421322000043, 47.185045718000026 ], [ 9.544553600000029, 47.188709168000059 ], [ 9.551475500000038, 47.189489999000045 ], [ 9.555206, 47.185363499000061 ], [ 9.56046860500004, 47.18537150700007 ], [ 9.560476, 47.18711999900006 ], [ 9.56312, 47.188222999000061 ], [ 9.562885, 47.190611999000055 ], [ 9.565192500000023, 47.191216999000062 ] ] ], [ [ [ 9.524455, 47.192502499000057 ], [ 9.531046, 47.191932999000073 ], [ 9.529727473000037, 47.190851918000078 ], [ 9.526441614000021, 47.19099380800003 ], [ 9.524455, 47.192502499000057 ] ] ] ] } },
{ "type": "Feature", "properties": { "GISCO_ID": "LI_LI00002002", "CNTR_CODE": "LI", "LAU_ID": "LI00002002", "LAU_NAME": "Mauren", "cell_coverage": [ [ 0.0696, 0.2949, 0 ], [ 0.0028, 0.1447, 0.0017 ] ], "xmin": 9.5, "xmax": 9.625, "ymin": 47.16666666666665, "ymax": 47.25 }, "geometry": { "type": "MultiPolygon", "coordinates": [ [ [ [ 9.544842, 47.226161499000057 ], [ 9.557584, 47.23148149900004 ], [ 9.554823868000028, 47.223810421000053 ], [ 9.569766293000043, 47.218710458000032 ], [ 9.584809500000063, 47.204570499000056 ], [ 9.579292500000065, 47.195099999000035 ], [ 9.560634519000075, 47.200401483000064 ], [ 9.565570473000037, 47.204368656000042 ], [ 9.559745225000029, 47.208603617000051 ], [ 9.544851877000042, 47.204543657000045 ], [ 9.531329538000023, 47.21132125500003 ], [ 9.533963517000075, 47.220603955000058 ], [ 9.544842, 47.226161499000057 ] ] ] ] } },
{ "type": "Feature", "properties": { "GISCO_ID": "LI_LI00002003", "CNTR_CODE": "LI", "LAU_ID": "LI00002003", "LAU_NAME": "Gamprin", "cell_coverage": [ [ 0.0033, 0.2168, 0 ], [ 0.0163, 0.1006, 0.0937 ] ], "xmin": 9.4583333333333286, "xmax": 9.5833333333333286, "ymin": 47.16666666666665, "ymax": 47.25 }, "geometry": { "type": "MultiPolygon", "coordinates": [ [ [ [ 9.557721500000071, 47.187557999000035 ], [ 9.555411500000048, 47.190227499000059 ], [ 9.551479500000028, 47.190929999000048 ], [ 9.550770500000056, 47.190024999000059 ], [ 9.546804912000027, 47.192589086000055 ], [ 9.539962, 47.191410499000028 ], [ 9.547917297000026, 47.196312735000049 ], [ 9.550266541000042, 47.201144035000027 ], [ 9.560661846000073, 47.197913605000053 ], [ 9.565192500000023, 47.191216999000062 ], [ 9.562885, 47.190611999000055 ], [ 9.56312, 47.188222999000061 ], [ 9.560476, 47.18711999900006 ], [ 9.557721500000071, 47.187557999000035 ] ] ], [ [ [ 9.529422, 47.22601049900004 ], [ 9.537603500000046, 47.22515099900005 ], [ 9.515052828000023, 47.219236676000037 ], [ 9.506448376000037, 47.209345935000044 ], [ 9.511471469000071, 47.198882918000038 ], [ 9.53182, 47.19181099900004 ], [ 9.531046, 47.191932999000073 ], [ 9.524455, 47.192502499000057 ], [ 9.515767500000038, 47.193136499000047 ], [ 9.507744500000058, 47.193883999000036 ], [ 9.503793554000026, 47.198388966000039 ], [ 9.496378732000039, 47.197201266000036 ], [ 9.498639464000064, 47.203476958000067 ], [ 9.49612, 47.206707499000061 ], [ 9.499110500000029, 47.210648999000057 ], [ 9.499636500000065, 47.212645999000074 ], [ 9.500151, 47.216055999000048 ], [ 9.50134550000007, 47.219966499000066 ], [ 9.502722500000061, 47.222793499000034 ], [ 9.50427, 47.224907999000038 ], [ 9.510388, 47.231780499000081 ], [ 9.518517287000066, 47.232511160000058 ], [ 9.529422, 47.22601049900004 ] ] ] ] } },
{ "type": "Feature", "properties": { "GISCO_ID": "LI_LI00002004", "CNTR_CODE": "LI", "LAU_ID": "LI00002004", "LAU_NAME": "Ruggell", "cell_coverage": [ [ 0.1468, 0.0504 ], [ 0.2857, 0.0325 ] ], "xmin": 9.5, "xmax": 9.5833333333333339, "ymin": 47.208333333333321, "ymax": 47.291666666666657 }, "geometry": { "type": "MultiPolygon", "coordinates": [ [ [ [ 9.555702500000052, 47.252694499000029 ], [ 9.541593100000057, 47.242104519000065 ], [ 9.545348125000032, 47.235791390000031 ], [ 9.529422, 47.22601049900004 ], [ 9.518517287000066, 47.232511160000058 ], [ 9.510388, 47.231780499000081 ], [ 9.521619909000037, 47.246668658000033 ], [ 9.529812, 47.269381499000076 ], [ 9.530749, 47.27058099900006 ], [ 9.54112047600006, 47.260768021000047 ], [ 9.555702500000052, 47.252694499000029 ] ] ] ] } },
{ "type": "Feature", "properties": { "GISCO_ID": "LI_LI00002005", "CNTR_CODE": "LI", "LAU_ID": "LI00002005", "LAU_NAME": "Schellenberg", "cell_coverage": [ [ 0, 0.0048 ], [ 0.0276, 0.2129 ] ], "xmin": 9.5, "xmax": 9.5833333333333339, "ymin": 47.208333333333321, "ymax": 47.291666666666657 }, "geometry": { "type": "MultiPolygon", "coordinates": [ [ [ [ 9.529422, 47.22601049900004 ], [ 9.545348125000032, 47.235791390000031 ], [ 9.541593100000057, 47.242104519000065 ], [ 9.555702500000052, 47.252694499000029 ], [ 9.566655698000034, 47.241592467000032 ], [ 9.557584, 47.23148149900004 ], [ 9.544842, 47.226161499000057 ], [ 9.544143500000075, 47.229215499000077 ], [ 9.537603500000046, 47.22515099900005 ], [ 9.529422, 47.22601049900004 ] ] ] ] } },
{ "type": "Feature", "properties": { "GISCO_ID": "LI_LI00002001", "CNTR_CODE": "LI", "LAU_ID": "LI00002001", "LAU_NAME": "Eschen", "cell_coverage": [ [ 0, 0.1821, 0.0055 ], [ 0.0771, 0.2729, 0.174 ] ], "xmin": 9.4583333333333286, "xmax": 9.5833333333333286, "ymin": 47.16666666666665, "ymax": 47.25 }, "geometry": { "type": "MultiPolygon", "coordinates": [ [ [ [ 9.53182, 47.19181099900004 ], [ 9.511471469000071, 47.198882918000038 ], [ 9.506448376000037, 47.209345935000044 ], [ 9.515052828000023, 47.219236676000037 ], [ 9.537603500000046, 47.22515099900005 ], [ 9.544143500000075, 47.229215499000077 ], [ 9.544842, 47.226161499000057 ], [ 9.533963517000075, 47.220603955000058 ], [ 9.531329538000023, 47.21132125500003 ], [ 9.544851877000042, 47.204543657000045 ], [ 9.559745225000029, 47.208603617000051 ], [ 9.565570473000037, 47.204368656000042 ], [ 9.560634519000075, 47.200401483000064 ], [ 9.579292500000065, 47.195099999000035 ], [ 9.573164500000075, 47.187838499000065 ], [ 9.565192500000023, 47.191216999000062 ], [ 9.560661846000073, 47.197913605000053 ], [ 9.550266541000042, 47.201144035000027 ], [ 9.547917297000026, 47.196312735000049 ], [ 9.539962, 47.191410499000028 ], [ 9.53182, 47.19181099900004 ] ] ], [ [ [ 9.487608, 47.190294499000061 ], [ 9.489307500000052, 47.196049999000081 ], [ 9.49022350000007, 47.198246999000048 ], [ 9.49612, 47.206707499000061 ], [ 9.498639464000064, 47.203476958000067 ], [ 9.496378732000039, 47.197201266000036 ], [ 9.503793554000026, 47.198388966000039 ], [ 9.507744500000058, 47.193883999000036 ], [ 9.50412, 47.194039499000041 ], [ 9.493202010000061, 47.187864997000077 ], [ 9.487608, 47.190294499000061 ] ] ] ] } }
]
}
