{
"type": "FeatureCollection",
"name": "MT",
"crs": { "type": "name", "properties": { "name": "urn:ogc:def:crs:OGC:1.3:CRS84" } },
"features": [
{ "type": "Feature", "properties": { "GISCO_ID": "MT_MT01101", "CNTR_CODE": "MT", "LAU_ID": "MT01101", "LAU_NAME": "Valletta", "cell_coverage": [ [ 0.0477 ] ], "xmin": 14.5, "xmax": 14.541666666666666, "ymin": 35.875, "ymax": 35.916666666666657 }, "geometry": { "type": "MultiPolygon", "coordinates": [ [ [ [ 14.511120500000061, 35.893119999000078 ], [ 14.50667035400005, 35.896260430000041 ], [ 14.50575850000007, 35.899059499000032 ], [ 14.513108914000043, 35.902367647000062 ], [ 14.520012051000037, 35.902986007000038 ], [ 14.518117579000034, 35.897301275000075 ], [ 14.511120500000061, 35.893119999000078 ] ] ] ] } },
{ "type": "Feature", "properties": { "GISCO_ID": "MT_MT01103", "CNTR_CODE": "MT", "LAU_ID": "MT01103", "LAU_NAME": "Il-Birgu", "cell_coverage": [ [ 0.0282 ] ], "xmin": 14.5, "xmax": 14.541666666666666, "ymin": 35.875, "ymax": 35.916666666666657 }, "geometry": { "type": "MultiPolygon", "coordinates": [ [ [ [ 14.52926750000006, 35.880142499000044 ], [ 14.521155500000077, 35.885200999000062 ], [ 14.52030054100004, 35.889663244000076 ], [ 14.525751, 35.887981499000034 ], [ 14.531114, 35.884315499000024 ], [ 14.52926750000006, 35.880142499000044 ] ] ] ] } },
{ "type": "Feature", "properties": { "GISCO_ID": "MT_MT01104", "CNTR_CODE": "MT", "LAU_ID": "MT01104", "LAU_NAME": "L-Isla", "cell_coverage": [ [ 0.008 ] ], "xmin": 14.5, "xmax": 14.541666666666666, "ymin": 35.875, "ymax": 35.916666666666657 }, "geometry": { "type": "MultiPolygon", "coordinates": [ [ [ [ 14.519856, 35.884276999000065 ], [ 14.514114, 35.889324499000054 ], [ 14.513563500000032, 35.890689999000074 ], [ 14.514056, 35.891059999000049 ], [ 14.516872, 35.889698499000076 ], [ 14.520030500000075, 35.885955999000032 ], [ 14.519856, 35.884276999000065 ] ] ] ] } },
{ "type": "Feature", "properties": { "GISCO_ID": "MT_MT01108", "CNTR_CODE": "MT", "LAU_ID": "MT01108", "LAU_NAME": "Ħaż-Żabbar", "cell_coverage": [ [ 0.0783, 0.0788 ], [ 0.071, 0.0692 ] ], "xmin": 14.5, "xmax": 14.583333333333334, "ymin": 35.833333333333321, "ymax": 35.916666666666657 }, "geometry": { "type": "MultiPolygon", "coordinates": [ [ [ [ 14.526985, 35.87675899900006 ], [ 14.52926750000006, 35.880142499000044 ], [ 14.531114, 35.884315499000024 ], [ 14.534440433000043, 35.886509799000066 ], [ 14.540987, 35.885730999000032 ], [ 14.550323753000043, 35.880213419000029 ], [ 14.557221500000026, 35.881797999000071 ], [ 14.564253500000063, 35.87748349900005 ], [ 14.544979, 35.86414699900007 ], [ 14.542650500000036, 35.864654499000039 ], [ 14.540313, 35.863814999000056 ], [ 14.534440433000043, 35.866884937000066 ], [ 14.526811500000065, 35.86944599900005 ], [ 14.526985, 35.87675899900006 ] ] ] ] } },
{ "type": "Feature", "properties": { "GISCO_ID": "MT_MT01117", "CNTR_CODE": "MT", "LAU_ID": "MT01117", "LAU_NAME": "Il-Fgura", "cell_coverage": [ [ 0.0154 ], [ 0.0476 ] ], "xmin": 14.5, "xmax": 14.541666666666666, "ymin": 35.833333333333321, "ymax": 35.916666666666657 }, "geometry": { "type": "MultiPolygon", "coordinates": [ [ [ [ 14.526811500000065, 35.86944599900005 ], [ 14.520708500000069, 35.866962499000067 ], [ 14.517231500000037, 35.86645149900005 ], [ 14.518244, 35.869998999000074 ], [ 14.515478500000029, 35.871318999000039 ], [ 14.513275500000077, 35.871162499000036 ], [ 14.514489500000025, 35.877437999000051 ], [ 14.526985, 35.87675899900006 ], [ 14.526811500000065, 35.86944599900005 ] ] ] ] } },
{ "type": "Feature", "properties": { "GISCO_ID": "MT_MT01118", "CNTR_CODE": "MT", "LAU_ID": "MT01118", "LAU_NAME": "Floriana", "cell_coverage": [ [ 0.0067, 0.0468 ] ], "xmin": 14.458333333333329, "xmax": 14.541666666666663, "ymin": 35.875, "ymax": 35.916666666666657 }, "geometry": { "type": "MultiPolygon", "coordinates": [ [ [ [ 14.497448, 35.890861999000037 ], [ 14.49759, 35.892959999000027 ], [ 14.50575850000007, 35.899059499000032 ], [ 14.50667035400005, 35.896260430000041 ], [ 14.511120500000061, 35.893119999000078 ], [ 14.50546, 35.888111499000047 ], [ 14.501277500000072, 35.885982999000078 ], [ 14.49791, 35.887607999000068 ], [ 14.500261500000022, 35.889927499000066 ], [ 14.497448, 35.890861999000037 ] ] ] ] } },
{ "type": "Feature", "properties": { "GISCO_ID": "MT_MT01129", "CNTR_CODE": "MT", "LAU_ID": "MT01129", "LAU_NAME": "Il-Kalkara", "cell_coverage": [ [ 0.0958, 0.0055 ] ], "xmin": 14.5, "xmax": 14.583333333333334, "ymin": 35.875, "ymax": 35.916666666666657 }, "geometry": { "type": "MultiPolygon", "coordinates": [ [ [ [ 14.545329, 35.890686499000026 ], [ 14.541300057000058, 35.887892496000063 ], [ 14.540987, 35.885730999000032 ], [ 14.534440433000043, 35.886509799000066 ], [ 14.531114, 35.884315499000024 ], [ 14.525751, 35.887981499000034 ], [ 14.524050898000041, 35.898686746000067 ], [ 14.534440433000043, 35.895560621000072 ], [ 14.540110372000072, 35.894556149000039 ], [ 14.545329, 35.890686499000026 ] ] ] ] } },
{ "type": "Feature", "properties": { "GISCO_ID": "MT_MT01133", "CNTR_CODE": "MT", "LAU_ID": "MT01133", "LAU_NAME": "Ħal Luqa", "cell_coverage": [ [ 0.0002, 0 ], [ 0.3608, 0.0269 ], [ 0, 0.0035 ] ], "xmin": 14.458333333333329, "xmax": 14.541666666666663, "ymin": 35.791666666666657, "ymax": 35.916666666666657 }, "geometry": { "type": "MultiPolygon", "coordinates": [ [ [ [ 14.495490500000074, 35.865813999000068 ], [ 14.496757, 35.861820499000032 ], [ 14.498717500000055, 35.862842999000065 ], [ 14.501223, 35.85905499900008 ], [ 14.49626435700003, 35.857991514000048 ], [ 14.494888604000039, 35.854151759000047 ], [ 14.498561893000044, 35.843954746000065 ], [ 14.504496, 35.838851499000043 ], [ 14.509486500000037, 35.834784999000078 ], [ 14.507979, 35.83336999900007 ], [ 14.510368, 35.831450999000026 ], [ 14.509776266000074, 35.830991281000024 ], [ 14.507396, 35.832889499000032 ], [ 14.505829500000061, 35.831603999000038 ], [ 14.500145500000031, 35.835765499000047 ], [ 14.499066, 35.838077499000065 ], [ 14.492023, 35.843657999000072 ], [ 14.482810500000028, 35.851115999000058 ], [ 14.481067, 35.850429499000029 ], [ 14.472691146000045, 35.851600789000031 ], [ 14.462820979000071, 35.848510224000051 ], [ 14.461339500000065, 35.850688999000056 ], [ 14.470982077000031, 35.859313733000079 ], [ 14.469763, 35.863445499000079 ], [ 14.480756, 35.87563349900006 ], [ 14.484919452000042, 35.869793686000037 ], [ 14.495490500000074, 35.865813999000068 ] ] ] ] } },
{ "type": "Feature", "properties": { "GISCO_ID": "MT_MT01134", "CNTR_CODE": "MT", "LAU_ID": "MT01134", "LAU_NAME": "Il-Marsa", "cell_coverage": [ [ 0.0934, 0.0152 ], [ 0.0636, 0.0005 ] ], "xmin": 14.458333333333329, "xmax": 14.541666666666663, "ymin": 35.833333333333321, "ymax": 35.916666666666657 }, "geometry": { "type": "MultiPolygon", "coordinates": [ [ [ [ 14.503605500000049, 35.879199999000036 ], [ 14.495490500000074, 35.865813999000068 ], [ 14.484919452000042, 35.869793686000037 ], [ 14.480756, 35.87563349900006 ], [ 14.484957, 35.881298499000025 ], [ 14.49791, 35.887607999000068 ], [ 14.501277500000072, 35.885982999000078 ], [ 14.50546, 35.888111499000047 ], [ 14.500833755000031, 35.88433184400003 ], [ 14.503605500000049, 35.879199999000036 ] ] ] ] } },
{ "type": "Feature", "properties": { "GISCO_ID": "MT_MT01145", "CNTR_CODE": "MT", "LAU_ID": "MT01145", "LAU_NAME": "Raħal Ġdid", "cell_coverage": [ [ 0, 0.0584 ], [ 0.0171, 0.0629 ] ], "xmin": 14.458333333333329, "xmax": 14.541666666666663, "ymin": 35.833333333333321, "ymax": 35.916666666666657 }, "geometry": { "type": "MultiPolygon", "coordinates": [ [ [ [ 14.503605500000049, 35.879199999000036 ], [ 14.504129380000052, 35.882587547000071 ], [ 14.509679328000061, 35.885453924000046 ], [ 14.51424, 35.883064499000056 ], [ 14.514489500000025, 35.877437999000051 ], [ 14.513275500000077, 35.871162499000036 ], [ 14.509459508000077, 35.870062472000029 ], [ 14.506624500000044, 35.865283999000042 ], [ 14.498717500000055, 35.862842999000065 ], [ 14.496757, 35.861820499000032 ], [ 14.495490500000074, 35.865813999000068 ], [ 14.503605500000049, 35.879199999000036 ] ] ] ] } },
{ "type": "Feature", "properties": { "GISCO_ID": "MT_MT01157", "CNTR_CODE": "MT", "LAU_ID": "MT01157", "LAU_NAME": "Santa Luċija", "cell_coverage": [ [ 0.0009, 0.0411 ] ], "xmin": 14.458333333333329, "xmax": 14.541666666666663, "ymin": 35.833333333333321, "ymax": 35.875 }, "geometry": { "type": "MultiPolygon", "coordinates": [ [ [ [ 14.51454, 35.861834999000052 ], [ 14.511498500000073, 35.857203999000035 ], [ 14.506537, 35.858790999000064 ], [ 14.501223, 35.85905499900008 ], [ 14.498717500000055, 35.862842999000065 ], [ 14.506624500000044, 35.865283999000042 ], [ 14.510072, 35.863239499000031 ], [ 14.51454, 35.861834999000052 ] ] ] ] } },
{ "type": "Feature", "properties": { "GISCO_ID": "MT_MT01165", "CNTR_CODE": "MT", "LAU_ID": "MT01165", "LAU_NAME": "Ix-Xgħajra", "cell_coverage": [ [ 0.0008, 0.0448 ] ], "xmin": 14.5, "xmax": 14.583333333333334, "ymin": 35.875, "ymax": 35.916666666666657 }, "geometry": { "type": "MultiPolygon", "coordinates": [ [ [ [ 14.540987, 35.885730999000032 ], [ 14.541300057000058, 35.887892496000063 ], [ 14.545329, 35.890686499000026 ], [ 14.557221500000026, 35.881797999000071 ], [ 14.550323753000043, 35.880213419000029 ], [ 14.540987, 35.885730999000032 ] ] ] ] } },
{ "type": "Feature", "properties": { "GISCO_ID": "MT_MT01206", "CNTR_CODE": "MT", "LAU_ID": "MT01206", "LAU_NAME": "Ħal Qormi", "cell_coverage": [ [ 0.0284, 0.1652 ], [ 0, 0.0758 ] ], "xmin": 14.416666666666664, "xmax": 14.5, "ymin": 35.833333333333321, "ymax": 35.916666666666657 }, "geometry": { "type": "MultiPolygon", "coordinates": [ [ [ [ 14.480756, 35.87563349900006 ], [ 14.469763, 35.863445499000079 ], [ 14.465973500000075, 35.863563999000064 ], [ 14.462259341000049, 35.873044967000055 ], [ 14.452197682000076, 35.879396884000073 ], [ 14.454698, 35.884655499000075 ], [ 14.458171500000049, 35.890865499000029 ], [ 14.463005, 35.888626499000054 ], [ 14.471535, 35.886878999000032 ], [ 14.479929500000026, 35.883914999000069 ], [ 14.48309142200003, 35.881758596000054 ], [ 14.484957, 35.881298499000025 ], [ 14.480756, 35.87563349900006 ] ] ] ] } },
{ "type": "Feature", "properties": { "GISCO_ID": "MT_MT01214", "CNTR_CODE": "MT", "LAU_ID": "MT01214", "LAU_NAME": "Birkirkara", "cell_coverage": [ [ 0.0183, 0.147 ] ], "xmin": 14.416666666666664, "xmax": 14.5, "ymin": 35.875, "ymax": 35.916666666666657 }, "geometry": { "type": "MultiPolygon", "coordinates": [ [ [ [ 14.456715, 35.892807499000071 ], [ 14.456033830000024, 35.898835640000073 ], [ 14.452302, 35.902202999000053 ], [ 14.463303500000052, 35.904743499000062 ], [ 14.473564500000066, 35.902645499000073 ], [ 14.477110887000038, 35.898718600000052 ], [ 14.476854, 35.894195999000033 ], [ 14.473750678000044, 35.893517527000029 ], [ 14.471535, 35.886878999000032 ], [ 14.463005, 35.888626499000054 ], [ 14.458171500000049, 35.890865499000029 ], [ 14.456715, 35.892807499000071 ] ] ] ] } },
{ "type": "Feature", "properties": { "GISCO_ID": "MT_MT01221", "CNTR_CODE": "MT", "LAU_ID": "MT01221", "LAU_NAME": "Il-Gżira", "cell_coverage": [ [ 0.0473, 0.0102 ] ], "xmin": 14.458333333333329, "xmax": 14.541666666666663, "ymin": 35.875, "ymax": 35.916666666666657 }, "geometry": { "type": "MultiPolygon", "coordinates": [ [ [ [ 14.498899, 35.907260999000073 ], [ 14.507117500000049, 35.903376888000025 ], [ 14.496792500000026, 35.901008999000055 ], [ 14.494098662000056, 35.901479319000032 ], [ 14.49245, 35.900703499000031 ], [ 14.487236, 35.904392499000039 ], [ 14.489895596000054, 35.907352737000053 ], [ 14.489618500000063, 35.909126499000024 ], [ 14.494693, 35.909823999000025 ], [ 14.498899, 35.907260999000073 ] ] ] ] } },
{ "type": "Feature", "properties": { "GISCO_ID": "MT_MT01227", "CNTR_CODE": "MT", "LAU_ID": "MT01227", "LAU_NAME": "Il-Ħamrun", "cell_coverage": [ [ 0.0626, 0 ] ], "xmin": 14.458333333333329, "xmax": 14.541666666666663, "ymin": 35.875, "ymax": 35.916666666666657 }, "geometry": { "type": "MultiPolygon", "coordinates": [ [ [ [ 14.489891500000056, 35.891071499000077 ], [ 14.490521220000062, 35.889214890000062 ], [ 14.49314600200006, 35.888605460000065 ], [ 14.497448, 35.890861999000037 ], [ 14.500261500000022, 35.889927499000066 ], [ 14.49791, 35.887607999000068 ], [ 14.484957, 35.881298499000025 ], [ 14.48309142200003, 35.881758596000054 ], [ 14.479929500000026, 35.883914999000069 ], [ 14.484731, 35.892040499000075 ], [ 14.489891500000056, 35.891071499000077 ] ] ] ] } },
{ "type": "Feature", "properties": { "GISCO_ID": "MT_MT01241", "CNTR_CODE": "MT", "LAU_ID": "MT01241", "LAU_NAME": "L-Imsida", "cell_coverage": [ [ 0.0989 ] ], "xmin": 14.458333333333329, "xmax": 14.5, "ymin": 35.875, "ymax": 35.916666666666657 }, "geometry": { "type": "MultiPolygon", "coordinates": [ [ [ [ 14.49245, 35.900703499000031 ], [ 14.493410500000039, 35.897186499000043 ], [ 14.490977, 35.895069499000044 ], [ 14.489891500000056, 35.891071499000077 ], [ 14.484731, 35.892040499000075 ], [ 14.476854, 35.894195999000033 ], [ 14.477110887000038, 35.898718600000052 ], [ 14.473564500000066, 35.902645499000073 ], [ 14.487236, 35.904392499000039 ], [ 14.49245, 35.900703499000031 ] ] ] ] } },
{ "type": "Feature", "properties": { "GISCO_ID": "MT_MT01246", "CNTR_CODE": "MT", "LAU_ID": "MT01246", "LAU_NAME": "Pembroke", "cell_coverage": [ [ 0.1313 ] ], "xmin": 14.458333333333329, "xmax": 14.5, "ymin": 35.916666666666657, "ymax": 35.958333333333321 }, "geometry": { "type": "MultiPolygon", "coordinates": [ [ [ [ 14.483248, 35.923507999000037 ], [ 14.473384500000066, 35.923480999000049 ], [ 14.472316500000034, 35.926574999000024 ], [ 14.469202500000051, 35.93002799900006 ], [ 14.466006500000049, 35.932498999000074 ], [ 14.463280500000053, 35.933567499000048 ], [ 14.463805, 35.937049999000067 ], [ 14.47006250000004, 35.936107999000058 ], [ 14.472295, 35.937549999000055 ], [ 14.476778, 35.937900999000078 ], [ 14.48154, 35.936252999000033 ], [ 14.481088, 35.933864999000036 ], [ 14.483578, 35.933528999000032 ], [ 14.485786, 35.931865999000024 ], [ 14.48796150000004, 35.931621499000073 ], [ 14.489682500000072, 35.930393499000047 ], [ 14.483248, 35.923507999000037 ] ] ] ] } },
{ "type": "Feature", "properties": { "GISCO_ID": "MT_MT01247", "CNTR_CODE": "MT", "LAU_ID": "MT01247", "LAU_NAME": "Tal-Pieta'", "cell_coverage": [ [ 0.0239 ] ], "xmin": 14.458333333333329, "xmax": 14.5, "ymin": 35.875, "ymax": 35.916666666666657 }, "geometry": { "type": "MultiPolygon", "coordinates": [ [ [ [ 14.49759, 35.892959999000027 ], [ 14.497448, 35.890861999000037 ], [ 14.49314600200006, 35.888605460000065 ], [ 14.490521220000062, 35.889214890000062 ], [ 14.489891500000056, 35.891071499000077 ], [ 14.490977, 35.895069499000044 ], [ 14.495919723000043, 35.895893599000033 ], [ 14.49759, 35.892959999000027 ] ] ] ] } },
{ "type": "Feature", "properties": { "GISCO_ID": "MT_MT01252", "CNTR_CODE": "MT", "LAU_ID": "MT01252", "LAU_NAME": "San Ġiljan", "cell_coverage": [ [ 0.0569 ], [ 0.0415 ] ], "xmin": 14.458333333333329, "xmax": 14.5, "ymin": 35.875, "ymax": 35.958333333333321 }, "geometry": { "type": "MultiPolygon", "coordinates": [ [ [ [ 14.489618500000063, 35.909126499000024 ], [ 14.483759108000072, 35.912454946000025 ], [ 14.484174500000051, 35.916358999000067 ], [ 14.486089140000047, 35.918201640000063 ], [ 14.486434824000071, 35.922361193000029 ], [ 14.483248, 35.923507999000037 ], [ 14.489682500000072, 35.930393499000047 ], [ 14.494389524000042, 35.926369715000078 ], [ 14.493372358000045, 35.917026204000024 ], [ 14.495508500000028, 35.915306999000052 ], [ 14.494693, 35.909823999000025 ], [ 14.489618500000063, 35.909126499000024 ] ] ] ] } },
{ "type": "Feature", "properties": { "GISCO_ID": "MT_MT01258", "CNTR_CODE": "MT", "LAU_ID": "MT01258", "LAU_NAME": "Santa Venera", "cell_coverage": [ [ 0.0491 ] ], "xmin": 14.458333333333329, "xmax": 14.5, "ymin": 35.875, "ymax": 35.916666666666657 }, "geometry": { "type": "MultiPolygon", "coordinates": [ [ [ [ 14.476854, 35.894195999000033 ], [ 14.484731, 35.892040499000075 ], [ 14.479929500000026, 35.883914999000069 ], [ 14.471535, 35.886878999000032 ], [ 14.473750678000044, 35.893517527000029 ], [ 14.476854, 35.894195999000033 ] ] ] ] } },
{ "type": "Feature", "properties": { "GISCO_ID": "MT_MT01259", "CNTR_CODE": "MT", "LAU_ID": "MT01259", "LAU_NAME": "Tas-Sliema", "cell_coverage": [ [ 0.0011, 0.0015 ], [ 0.0229, 0.0487 ] ], "xmin": 14.458333333333329, "xmax": 14.541666666666663, "ymin": 35.875, "ymax": 35.958333333333321 }, "geometry": { "type": "MultiPolygon", "coordinates": [ [ [ [ 14.498899, 35.907260999000073 ], [ 14.494693, 35.909823999000025 ], [ 14.495508500000028, 35.915306999000052 ], [ 14.499724504000028, 35.918052858000067 ], [ 14.50386886800004, 35.916679568000063 ], [ 14.51389223700005, 35.906843749000075 ], [ 14.498899, 35.907260999000073 ] ] ] ] } },
{ "type": "Feature", "properties": { "GISCO_ID": "MT_MT01260", "CNTR_CODE": "MT", "LAU_ID": "MT01260", "LAU_NAME": "Is-Swieqi", "cell_coverage": [ [ 0.0038, 0.1467 ], [ 0, 0.0218 ] ], "xmin": 14.416666666666664, "xmax": 14.5, "ymin": 35.875, "ymax": 35.958333333333321 }, "geometry": { "type": "MultiPolygon", "coordinates": [ [ [ [ 14.483248, 35.923507999000037 ], [ 14.486434824000071, 35.922361193000029 ], [ 14.486089140000047, 35.918201640000063 ], [ 14.484174500000051, 35.916358999000067 ], [ 14.481621, 35.917022999000039 ], [ 14.478030500000045, 35.915668499000049 ], [ 14.476889, 35.913730999000052 ], [ 14.471754500000031, 35.912647499000059 ], [ 14.467342, 35.915290999000035 ], [ 14.46415, 35.915313499000035 ], [ 14.464704082000026, 35.91942068700007 ], [ 14.455076, 35.93330049900004 ], [ 14.459603500000071, 35.93236949900006 ], [ 14.463280500000053, 35.933567499000048 ], [ 14.466006500000049, 35.932498999000074 ], [ 14.469202500000051, 35.93002799900006 ], [ 14.472316500000034, 35.926574999000024 ], [ 14.473384500000066, 35.923480999000049 ], [ 14.483248, 35.923507999000037 ] ] ] ] } },
{ "type": "Feature", "properties": { "GISCO_ID": "MT_MT01261", "CNTR_CODE": "MT", "LAU_ID": "MT01261", "LAU_NAME": "Ta' Xbiex", "cell_coverage": [ [ 0.0141, 0.0006 ] ], "xmin": 14.458333333333329, "xmax": 14.541666666666663, "ymin": 35.875, "ymax": 35.916666666666657 }, "geometry": { "type": "MultiPolygon", "coordinates": [ [ [ [ 14.496792500000026, 35.901008999000055 ], [ 14.500592, 35.899982499000032 ], [ 14.500192500000026, 35.897369499000035 ], [ 14.495819500000039, 35.89770149900005 ], [ 14.493410500000039, 35.897186499000043 ], [ 14.49245, 35.900703499000031 ], [ 14.494098662000056, 35.901479319000032 ], [ 14.496792500000026, 35.901008999000055 ] ] ] ] } },
{ "type": "Feature", "properties": { "GISCO_ID": "MT_MT01310", "CNTR_CODE": "MT", "LAU_ID": "MT01310", "LAU_NAME": "Iż-Żejtun", "cell_coverage": [ [ 0.2463, 0.0807 ] ], "xmin": 14.5, "xmax": 14.583333333333334, "ymin": 35.833333333333321, "ymax": 35.875 }, "geometry": { "type": "MultiPolygon", "coordinates": [ [ [ [ 14.526811500000065, 35.86944599900005 ], [ 14.534440433000043, 35.866884937000066 ], [ 14.540313, 35.863814999000056 ], [ 14.542650500000036, 35.864654499000039 ], [ 14.544979, 35.86414699900007 ], [ 14.549596891000022, 35.858886883000025 ], [ 14.552034500000048, 35.849387999000044 ], [ 14.547042325000064, 35.846474329000046 ], [ 14.526729, 35.846770999000057 ], [ 14.522468, 35.85359949900004 ], [ 14.515515500000049, 35.861492499000065 ], [ 14.518647500000043, 35.864127999000061 ], [ 14.520708500000069, 35.866962499000067 ], [ 14.526811500000065, 35.86944599900005 ] ] ] ] } },
{ "type": "Feature", "properties": { "GISCO_ID": "MT_MT01315", "CNTR_CODE": "MT", "LAU_ID": "MT01315", "LAU_NAME": "Birżebbuġa", "cell_coverage": [ [ 0.0861, 0 ], [ 0.4466, 0.0155 ] ], "xmin": 14.5, "xmax": 14.583333333333334, "ymin": 35.79166666666665, "ymax": 35.875 }, "geometry": { "type": "MultiPolygon", "coordinates": [ [ [ [ 14.509776266000074, 35.830991281000024 ], [ 14.510368, 35.831450999000026 ], [ 14.524850191000041, 35.839146327000037 ], [ 14.527912, 35.843871999000044 ], [ 14.534440433000043, 35.841764694000062 ], [ 14.539728495000077, 35.836092362000045 ], [ 14.541611500000045, 35.82993299900005 ], [ 14.535180580000031, 35.832257791000075 ], [ 14.530889141000046, 35.827361153000027 ], [ 14.532031551000046, 35.821358867000072 ], [ 14.542464806000055, 35.821129778000056 ], [ 14.547633126000051, 35.817626683000071 ], [ 14.537651262000054, 35.809162073000039 ], [ 14.516447550000066, 35.806866154000033 ], [ 14.500316500000054, 35.811717499000054 ], [ 14.501634641000066, 35.821110037000039 ], [ 14.513994530000048, 35.822718227000053 ], [ 14.509776266000074, 35.830991281000024 ] ] ] ] } },
{ "type": "Feature", "properties": { "GISCO_ID": "MT_MT01320", "CNTR_CODE": "MT", "LAU_ID": "MT01320", "LAU_NAME": "Il-Gudja", "cell_coverage": [ [ 0.0304, 0.0986 ] ], "xmin": 14.458333333333329, "xmax": 14.541666666666663, "ymin": 35.833333333333321, "ymax": 35.875 }, "geometry": { "type": "MultiPolygon", "coordinates": [ [ [ [ 14.511498500000073, 35.857203999000035 ], [ 14.507177642000045, 35.840749301000074 ], [ 14.504496, 35.838851499000043 ], [ 14.498561893000044, 35.843954746000065 ], [ 14.494888604000039, 35.854151759000047 ], [ 14.49626435700003, 35.857991514000048 ], [ 14.501223, 35.85905499900008 ], [ 14.506537, 35.858790999000064 ], [ 14.511498500000073, 35.857203999000035 ] ] ] ] } },
{ "type": "Feature", "properties": { "GISCO_ID": "MT_MT01326", "CNTR_CODE": "MT", "LAU_ID": "MT01326", "LAU_NAME": "Ħal Għaxaq", "cell_coverage": [ [ 0.2151 ], [ 0.0032 ] ], "xmin": 14.5, "xmax": 14.541666666666666, "ymin": 35.79166666666665, "ymax": 35.875 }, "geometry": { "type": "MultiPolygon", "coordinates": [ [ [ [ 14.511498500000073, 35.857203999000035 ], [ 14.51454, 35.861834999000052 ], [ 14.515515500000049, 35.861492499000065 ], [ 14.522468, 35.85359949900004 ], [ 14.526729, 35.846770999000057 ], [ 14.527912, 35.843871999000044 ], [ 14.524850191000041, 35.839146327000037 ], [ 14.510368, 35.831450999000026 ], [ 14.507979, 35.83336999900007 ], [ 14.509486500000037, 35.834784999000078 ], [ 14.504496, 35.838851499000043 ], [ 14.507177642000045, 35.840749301000074 ], [ 14.511498500000073, 35.857203999000035 ] ] ] ] } },
{ "type": "Feature", "properties": { "GISCO_ID": "MT_MT01331", "CNTR_CODE": "MT", "LAU_ID": "MT01331", "LAU_NAME": "Ħal Kirkop", "cell_coverage": [ [ 0.0674 ] ], "xmin": 14.458333333333329, "xmax": 14.5, "ymin": 35.833333333333321, "ymax": 35.875 }, "geometry": { "type": "MultiPolygon", "coordinates": [ [ [ [ 14.477059, 35.840533999000058 ], [ 14.481067, 35.850429499000029 ], [ 14.482810500000028, 35.851115999000058 ], [ 14.492023, 35.843657999000072 ], [ 14.485179500000072, 35.836101499000051 ], [ 14.482162, 35.839301999000043 ], [ 14.477059, 35.840533999000058 ] ] ] ] } },
{ "type": "Feature", "properties": { "GISCO_ID": "MT_MT01335", "CNTR_CODE": "MT", "LAU_ID": "MT01335", "LAU_NAME": "Marsaskala", "cell_coverage": [ [ 0.0046 ], [ 0.3083 ] ], "xmin": 14.541666666666664, "xmax": 14.58333333333333, "ymin": 35.833333333333321, "ymax": 35.916666666666657 }, "geometry": { "type": "MultiPolygon", "coordinates": [ [ [ [ 14.564253500000063, 35.87748349900005 ], [ 14.573919373000024, 35.868899767000073 ], [ 14.570548538000025, 35.865241437000066 ], [ 14.575136796000038, 35.861131597000053 ], [ 14.564156278000041, 35.853082913000037 ], [ 14.570832708000069, 35.849294846000078 ], [ 14.567220500000076, 35.845496999000034 ], [ 14.552034500000048, 35.849387999000044 ], [ 14.549596891000022, 35.858886883000025 ], [ 14.544979, 35.86414699900007 ], [ 14.564253500000063, 35.87748349900005 ] ] ] ] } },
{ "type": "Feature", "properties": { "GISCO_ID": "MT_MT01340", "CNTR_CODE": "MT", "LAU_ID": "MT01340", "LAU_NAME": "L-Imqabba", "cell_coverage": [ [ 0.0194, 0.1272 ] ], "xmin": 14.416666666666664, "xmax": 14.5, "ymin": 35.833333333333321, "ymax": 35.875 }, "geometry": { "type": "MultiPolygon", "coordinates": [ [ [ [ 14.461339500000065, 35.850688999000056 ], [ 14.462820979000071, 35.848510224000051 ], [ 14.472691146000045, 35.851600789000031 ], [ 14.481067, 35.850429499000029 ], [ 14.477059, 35.840533999000058 ], [ 14.468981500000041, 35.839408499000058 ], [ 14.460426823000034, 35.839005990000032 ], [ 14.450536, 35.842433499000038 ], [ 14.461339500000065, 35.850688999000056 ] ] ] ] } },
{ "type": "Feature", "properties": { "GISCO_ID": "MT_MT01349", "CNTR_CODE": "MT", "LAU_ID": "MT01349", "LAU_NAME": "Il-Qrendi", "cell_coverage": [ [ 0.071, 0.0329 ], [ 0.1587, 0.0247 ] ], "xmin": 14.416666666666664, "xmax": 14.5, "ymin": 35.79166666666665, "ymax": 35.875 }, "geometry": { "type": "MultiPolygon", "coordinates": [ [ [ [ 14.450536, 35.842433499000038 ], [ 14.460426823000034, 35.839005990000032 ], [ 14.468981500000041, 35.839408499000058 ], [ 14.466943779000076, 35.832965867000041 ], [ 14.456929500000058, 35.822219499000028 ], [ 14.451204423000036, 35.819477796000058 ], [ 14.430229500000053, 35.826297499000077 ], [ 14.435306899000068, 35.831537283000046 ], [ 14.440610174000028, 35.832491855000058 ], [ 14.443673726000043, 35.839925270000037 ], [ 14.450536, 35.842433499000038 ] ] ] ] } },
{ "type": "Feature", "properties": { "GISCO_ID": "MT_MT01351", "CNTR_CODE": "MT", "LAU_ID": "MT01351", "LAU_NAME": "Ħal Safi", "cell_coverage": [ [ 0.0617, 0.0025 ], [ 0.046, 0.0108 ] ], "xmin": 14.458333333333329, "xmax": 14.541666666666663, "ymin": 35.79166666666665, "ymax": 35.875 }, "geometry": { "type": "MultiPolygon", "coordinates": [ [ [ [ 14.492023, 35.843657999000072 ], [ 14.499066, 35.838077499000065 ], [ 14.500145500000031, 35.835765499000047 ], [ 14.505829500000061, 35.831603999000038 ], [ 14.501535570000044, 35.82857595300004 ], [ 14.495291812000062, 35.830495849000044 ], [ 14.486182466000059, 35.826734163000026 ], [ 14.48037462700006, 35.832948453000029 ], [ 14.485179500000072, 35.836101499000051 ], [ 14.492023, 35.843657999000072 ] ] ] ] } },
{ "type": "Feature", "properties": { "GISCO_ID": "MT_MT01367", "CNTR_CODE": "MT", "LAU_ID": "MT01367", "LAU_NAME": "Iż-Żurrieq", "cell_coverage": [ [ 0, 0.0578, 0 ], [ 0.0009, 0.3684, 0.0674 ] ], "xmin": 14.416666666666664, "xmax": 14.541666666666664, "ymin": 35.79166666666665, "ymax": 35.875 }, "geometry": { "type": "MultiPolygon", "coordinates": [ [ [ [ 14.485179500000072, 35.836101499000051 ], [ 14.48037462700006, 35.832948453000029 ], [ 14.486182466000059, 35.826734163000026 ], [ 14.495291812000062, 35.830495849000044 ], [ 14.501535570000044, 35.82857595300004 ], [ 14.505829500000061, 35.831603999000038 ], [ 14.507396, 35.832889499000032 ], [ 14.509776266000074, 35.830991281000024 ], [ 14.513994530000048, 35.822718227000053 ], [ 14.501634641000066, 35.821110037000039 ], [ 14.500316500000054, 35.811717499000054 ], [ 14.47372143900003, 35.814685460000078 ], [ 14.456929500000058, 35.822219499000028 ], [ 14.466943779000076, 35.832965867000041 ], [ 14.468981500000041, 35.839408499000058 ], [ 14.477059, 35.840533999000058 ], [ 14.482162, 35.839301999000043 ], [ 14.485179500000072, 35.836101499000051 ] ] ] ] } },
{ "type": "Feature", "properties": { "GISCO_ID": "MT_MT01402", "CNTR_CODE": "MT", "LAU_ID": "MT01402", "LAU_NAME": "L-Imdina", "cell_coverage": [ [ 0.0431 ] ], "xmin": 14.375, "xmax": 14.416666666666666, "ymin": 35.875, "ymax": 35.916666666666657 }, "geometry": { "type": "MultiPolygon", "coordinates": [ [ [ [ 14.398501, 35.887741499000072 ], [ 14.404742, 35.891666499000053 ], [ 14.408804500000031, 35.891235499000061 ], [ 14.411083500000075, 35.886093499000026 ], [ 14.412821500000064, 35.884140499000068 ], [ 14.415116, 35.883804499000064 ], [ 14.413424, 35.883380999000053 ], [ 14.403180884000051, 35.883810326000059 ], [ 14.398501, 35.887741499000072 ] ] ] ] } },
{ "type": "Feature", "properties": { "GISCO_ID": "MT_MT01407", "CNTR_CODE": "MT", "LAU_ID": "MT01407", "LAU_NAME": "Ħaż-Żebbuġ", "cell_coverage": [ [ 0.0198, 0.1909, 0.0001 ], [ 0.0099, 0.2532, 0.0282 ] ], "xmin": 14.375, "xmax": 14.5, "ymin": 35.833333333333321, "ymax": 35.916666666666657 }, "geometry": { "type": "MultiPolygon", "coordinates": [ [ [ [ 14.415116, 35.883804499000064 ], [ 14.42747477100005, 35.881391883000049 ], [ 14.438881325000068, 35.885330990000057 ], [ 14.454698, 35.884655499000075 ], [ 14.452197682000076, 35.879396884000073 ], [ 14.462259341000049, 35.873044967000055 ], [ 14.465973500000075, 35.863563999000064 ], [ 14.453814946000023, 35.867979959000024 ], [ 14.434075118000067, 35.860812656000064 ], [ 14.416919, 35.866703499000039 ], [ 14.41433950000004, 35.869804499000054 ], [ 14.413881, 35.873806499000068 ], [ 14.411907500000041, 35.878429499000049 ], [ 14.413424, 35.883380999000053 ], [ 14.415116, 35.883804499000064 ] ] ] ] } },
{ "type": "Feature", "properties": { "GISCO_ID": "MT_MT01409", "CNTR_CODE": "MT", "LAU_ID": "MT01409", "LAU_NAME": "Is-Siġġiewi", "cell_coverage": [ [ 0.353, 0.6563, 0.0763 ], [ 0.0023, 0.0625, 0 ] ], "xmin": 14.375, "xmax": 14.5, "ymin": 35.79166666666665, "ymax": 35.875 }, "geometry": { "type": "MultiPolygon", "coordinates": [ [ [ [ 14.469763, 35.863445499000079 ], [ 14.470982077000031, 35.859313733000079 ], [ 14.461339500000065, 35.850688999000056 ], [ 14.450536, 35.842433499000038 ], [ 14.443673726000043, 35.839925270000037 ], [ 14.440610174000028, 35.832491855000058 ], [ 14.435306899000068, 35.831537283000046 ], [ 14.430229500000053, 35.826297499000077 ], [ 14.41753490800005, 35.828495069000041 ], [ 14.414278501000069, 35.833493894000071 ], [ 14.397661661000029, 35.83887786300005 ], [ 14.389448, 35.846084999000027 ], [ 14.397807500000056, 35.862674999000035 ], [ 14.403642500000046, 35.862548999000069 ], [ 14.406665500000031, 35.861557499000071 ], [ 14.41359650000004, 35.863960499000029 ], [ 14.416919, 35.866703499000039 ], [ 14.434075118000067, 35.860812656000064 ], [ 14.453814946000023, 35.867979959000024 ], [ 14.465973500000075, 35.863563999000064 ], [ 14.469763, 35.863445499000079 ] ] ] ] } },
{ "type": "Feature", "properties": { "GISCO_ID": "MT_MT01412", "CNTR_CODE": "MT", "LAU_ID": "MT01412", "LAU_NAME": "Ħ'Attard", "cell_coverage": [ [ 0.0563, 0.3269 ] ], "xmin": 14.375, "xmax": 14.458333333333334, "ymin": 35.875, "ymax": 35.916666666666657 }, "geometry": { "type": "MultiPolygon", "coordinates": [ [ [ [ 14.434028, 35.897933999000031 ], [ 14.446071, 35.897163999000043 ], [ 14.44890289500006, 35.896536655000034 ], [ 14.45117698200005, 35.893383209000035 ], [ 14.456715, 35.892807499000071 ], [ 14.458171500000049, 35.890865499000029 ], [ 14.454698, 35.884655499000075 ], [ 14.438881325000068, 35.885330990000057 ], [ 14.42747477100005, 35.881391883000049 ], [ 14.415116, 35.883804499000064 ], [ 14.412821500000064, 35.884140499000068 ], [ 14.411083500000075, 35.886093499000026 ], [ 14.408804500000031, 35.891235499000061 ], [ 14.41326250000003, 35.900527999000076 ], [ 14.425517772000035, 35.901543878000041 ], [ 14.434028, 35.897933999000031 ] ] ] ] } },
{ "type": "Feature", "properties": { "GISCO_ID": "MT_MT01416", "CNTR_CODE": "MT", "LAU_ID": "MT01416", "LAU_NAME": "Ħad-Dingli", "cell_coverage": [ [ 0.0826, 0.2451 ] ], "xmin": 14.333333333333329, "xmax": 14.416666666666663, "ymin": 35.833333333333321, "ymax": 35.875 }, "geometry": { "type": "MultiPolygon", "coordinates": [ [ [ [ 14.397807500000056, 35.862674999000035 ], [ 14.389448, 35.846084999000027 ], [ 14.379665736000049, 35.849308177000069 ], [ 14.36274363900003, 35.86015373500004 ], [ 14.360122500000045, 35.86346099900004 ], [ 14.370621373000063, 35.868565970000077 ], [ 14.388749029000053, 35.87092046500004 ], [ 14.394556537000028, 35.869133372000078 ], [ 14.397807500000056, 35.862674999000035 ] ] ] ] } },
{ "type": "Feature", "properties": { "GISCO_ID": "MT_MT01428", "CNTR_CODE": "MT", "LAU_ID": "MT01428", "LAU_NAME": "L-Iklin", "cell_coverage": [ [ 0, 0 ], [ 0.071, 0.0278 ] ], "xmin": 14.416666666666664, "xmax": 14.5, "ymin": 35.875, "ymax": 35.958333333333321 }, "geometry": { "type": "MultiPolygon", "coordinates": [ [ [ [ 14.451327500000048, 35.916339999000058 ], [ 14.456127500000036, 35.916755999000031 ], [ 14.458876, 35.91610349900003 ], [ 14.462779500000067, 35.912406999000041 ], [ 14.463303500000052, 35.904743499000062 ], [ 14.452302, 35.902202999000053 ], [ 14.449137, 35.904747499000052 ], [ 14.447334, 35.90646749900003 ], [ 14.450093500000037, 35.909118999000043 ], [ 14.448513500000047, 35.914409999000043 ], [ 14.451327500000048, 35.916339999000058 ] ] ] ] } },
{ "type": "Feature", "properties": { "GISCO_ID": "MT_MT01432", "CNTR_CODE": "MT", "LAU_ID": "MT01432", "LAU_NAME": "Ħal Lija", "cell_coverage": [ [ 0.059 ] ], "xmin": 14.416666666666664, "xmax": 14.45833333333333, "ymin": 35.875, "ymax": 35.916666666666657 }, "geometry": { "type": "MultiPolygon", "coordinates": [ [ [ [ 14.438405500000044, 35.905662999000072 ], [ 14.442487, 35.904609999000058 ], [ 14.449137, 35.904747499000052 ], [ 14.452302, 35.902202999000053 ], [ 14.446071, 35.897163999000043 ], [ 14.434028, 35.897933999000031 ], [ 14.438405500000044, 35.905662999000072 ] ] ] ] } },
{ "type": "Feature", "properties": { "GISCO_ID": "MT_MT01450", "CNTR_CODE": "MT", "LAU_ID": "MT01450", "LAU_NAME": "Ir-Rabat", "cell_coverage": [ [ 0.026, 0.6168, 0.5753, 0 ], [ 0, 0.1317, 0.1935, 0 ] ], "xmin": 14.291666666666664, "xmax": 14.45833333333333, "ymin": 35.833333333333321, "ymax": 35.916666666666657 }, "geometry": { "type": "MultiPolygon", "coordinates": [ [ [ [ 14.404726500000038, 35.907520499000043 ], [ 14.41326250000003, 35.900527999000076 ], [ 14.408804500000031, 35.891235499000061 ], [ 14.404742, 35.891666499000053 ], [ 14.399713986000052, 35.895433790000027 ], [ 14.391523618000065, 35.888481402000025 ], [ 14.394529313000078, 35.885814166000046 ], [ 14.398501, 35.887741499000072 ], [ 14.403180884000051, 35.883810326000059 ], [ 14.413424, 35.883380999000053 ], [ 14.411907500000041, 35.878429499000049 ], [ 14.413881, 35.873806499000068 ], [ 14.41433950000004, 35.869804499000054 ], [ 14.416919, 35.866703499000039 ], [ 14.41359650000004, 35.863960499000029 ], [ 14.406665500000031, 35.861557499000071 ], [ 14.403642500000046, 35.862548999000069 ], [ 14.397807500000056, 35.862674999000035 ], [ 14.394556537000028, 35.869133372000078 ], [ 14.388749029000053, 35.87092046500004 ], [ 14.370621373000063, 35.868565970000077 ], [ 14.360122500000045, 35.86346099900004 ], [ 14.340028547000031, 35.875916541000038 ], [ 14.33541490500005, 35.889669621000053 ], [ 14.329449785000065, 35.896651200000065 ], [ 14.329403706000051, 35.905937270000038 ], [ 14.340897, 35.906108999000026 ], [ 14.344282489000022, 35.902099387000078 ], [ 14.358351790000029, 35.897734941000067 ], [ 14.362527985000042, 35.903272866000066 ], [ 14.376028805000033, 35.902821526000025 ], [ 14.38258531300005, 35.906219355000076 ], [ 14.404726500000038, 35.907520499000043 ] ] ] ] } },
{ "type": "Feature", "properties": { "GISCO_ID": "MT_MT01468", "CNTR_CODE": "MT", "LAU_ID": "MT01468", "LAU_NAME": "L-Imtarfa", "cell_coverage": [ [ 0.0329 ] ], "xmin": 14.375, "xmax": 14.416666666666666, "ymin": 35.875, "ymax": 35.916666666666657 }, "geometry": { "type": "MultiPolygon", "coordinates": [ [ [ [ 14.398501, 35.887741499000072 ], [ 14.394529313000078, 35.885814166000046 ], [ 14.391523618000065, 35.888481402000025 ], [ 14.399713986000052, 35.895433790000027 ], [ 14.404742, 35.891666499000053 ], [ 14.398501, 35.887741499000072 ] ] ] ] } },
{ "type": "Feature", "properties": { "GISCO_ID": "MT_MT01524", "CNTR_CODE": "MT", "LAU_ID": "MT01524", "LAU_NAME": "Ħal Għargħur", "cell_coverage": [ [ 0.0773, 0.0267 ], [ 0.0006, 0.0079 ] ], "xmin": 14.416666666666664, "xmax": 14.5, "ymin": 35.875, "ymax": 35.958333333333321 }, "geometry": { "type": "MultiPolygon", "coordinates": [ [ [ [ 14.451327500000048, 35.916339999000058 ], [ 14.448376406000023, 35.921194320000041 ], [ 14.448694450000062, 35.928670448000048 ], [ 14.455076, 35.93330049900004 ], [ 14.464704082000026, 35.91942068700007 ], [ 14.46415, 35.915313499000035 ], [ 14.462779500000067, 35.912406999000041 ], [ 14.458876, 35.91610349900003 ], [ 14.456127500000036, 35.916755999000031 ], [ 14.451327500000048, 35.916339999000058 ] ] ] ] } },
{ "type": "Feature", "properties": { "GISCO_ID": "MT_MT01537", "CNTR_CODE": "MT", "LAU_ID": "MT01537", "LAU_NAME": "Il-Mellieħa", "cell_coverage": [ [ 0.0766, 0.57, 0.1304 ], [ 0.0054, 0.4972, 0.0344 ] ], "xmin": 14.291666666666664, "xmax": 14.416666666666664, "ymin": 35.91666666666665, "ymax": 35.999999999999986 }, "geometry": { "type": "MultiPolygon", "coordinates": [ [ [ [ 14.373002500000041, 35.939213499000061 ], [ 14.351800463000075, 35.931352032000063 ], [ 14.342935, 35.930920499000024 ], [ 14.34246156200004, 35.934142619000056 ], [ 14.329446167000071, 35.941397762000065 ], [ 14.33601539600005, 35.945866765000062 ], [ 14.34052669700003, 35.953787920000025 ], [ 14.336404993000031, 35.967893631000038 ], [ 14.319903160000024, 35.971432916000026 ], [ 14.32249642000005, 35.97658563300007 ], [ 14.332784616000026, 35.98364749600006 ], [ 14.32860207300007, 35.988807568000027 ], [ 14.339072675000068, 35.986278083000059 ], [ 14.350698837000039, 35.987668423000059 ], [ 14.368788674000029, 35.997042419000024 ], [ 14.37485403200003, 35.98733504900008 ], [ 14.351467115000048, 35.97391067500007 ], [ 14.351011844000027, 35.969708986000057 ], [ 14.355255108000051, 35.966715627000042 ], [ 14.377893113000027, 35.97080306600003 ], [ 14.39598879600004, 35.967413160000035 ], [ 14.395526060000066, 35.959237604000066 ], [ 14.389762500000074, 35.957817999000042 ], [ 14.370792291000043, 35.948849794000068 ], [ 14.36993575300005, 35.944072475000041 ], [ 14.373002500000041, 35.939213499000061 ] ] ] ] } },
{ "type": "Feature", "properties": { "GISCO_ID": "MT_MT01538", "CNTR_CODE": "MT", "LAU_ID": "MT01538", "LAU_NAME": "L-Imġarr", "cell_coverage": [ [ 0.0002, 0.3549, 0.1067 ], [ 0, 0.3175, 0.1447 ] ], "xmin": 14.291666666666664, "xmax": 14.416666666666664, "ymin": 35.875, "ymax": 35.958333333333321 }, "geometry": { "type": "MultiPolygon", "coordinates": [ [ [ [ 14.373002500000041, 35.939213499000061 ], [ 14.379082259000029, 35.936793766000051 ], [ 14.377512755000055, 35.928549095000051 ], [ 14.387532855000075, 35.925288982000041 ], [ 14.394371498000055, 35.913797982000062 ], [ 14.401589, 35.910404499000038 ], [ 14.404726500000038, 35.907520499000043 ], [ 14.38258531300005, 35.906219355000076 ], [ 14.376028805000033, 35.902821526000025 ], [ 14.362527985000042, 35.903272866000066 ], [ 14.358351790000029, 35.897734941000067 ], [ 14.344282489000022, 35.902099387000078 ], [ 14.340897, 35.906108999000026 ], [ 14.332839620000073, 35.918647156000077 ], [ 14.335137671000041, 35.92242213600008 ], [ 14.343177171000036, 35.921863553000037 ], [ 14.342935, 35.930920499000024 ], [ 14.351800463000075, 35.931352032000063 ], [ 14.373002500000041, 35.939213499000061 ] ] ] ] } },
{ "type": "Feature", "properties": { "GISCO_ID": "MT_MT01539", "CNTR_CODE": "MT", "LAU_ID": "MT01539", "LAU_NAME": "Il-Mosta", "cell_coverage": [ [ 0.0569, 0.0505 ], [ 0.0969, 0.1838 ] ], "xmin": 14.375, "xmax": 14.458333333333334, "ymin": 35.875, "ymax": 35.958333333333321 }, "geometry": { "type": "MultiPolygon", "coordinates": [ [ [ [ 14.434028, 35.897933999000031 ], [ 14.425517772000035, 35.901543878000041 ], [ 14.41326250000003, 35.900527999000076 ], [ 14.404726500000038, 35.907520499000043 ], [ 14.401589, 35.910404499000038 ], [ 14.408412637000026, 35.917699600000049 ], [ 14.40248772800004, 35.92737659200003 ], [ 14.407983928000021, 35.927450631000056 ], [ 14.418870944000048, 35.921784297000045 ], [ 14.425242, 35.923831499000073 ], [ 14.432325357000025, 35.919258847000037 ], [ 14.438405500000044, 35.905662999000072 ], [ 14.434028, 35.897933999000031 ] ] ] ] } },
{ "type": "Feature", "properties": { "GISCO_ID": "MT_MT01555", "CNTR_CODE": "MT", "LAU_ID": "MT01555", "LAU_NAME": "San Pawl Il-Baħar", "cell_coverage": [ [ 0, 0, 0.0019 ], [ 0.0255, 0.6529, 0.1277 ], [ 0, 0.031, 0 ] ], "xmin": 14.333333333333329, "xmax": 14.458333333333329, "ymin": 35.875, "ymax": 35.999999999999986 }, "geometry": { "type": "MultiPolygon", "coordinates": [ [ [ [ 14.401589, 35.910404499000038 ], [ 14.394371498000055, 35.913797982000062 ], [ 14.387532855000075, 35.925288982000041 ], [ 14.377512755000055, 35.928549095000051 ], [ 14.379082259000029, 35.936793766000051 ], [ 14.373002500000041, 35.939213499000061 ], [ 14.36993575300005, 35.944072475000041 ], [ 14.370792291000043, 35.948849794000068 ], [ 14.389762500000074, 35.957817999000042 ], [ 14.384956232000036, 35.945876555000041 ], [ 14.405841931000055, 35.949375673000077 ], [ 14.427098048000062, 35.960252724000043 ], [ 14.425696, 35.948437499000079 ], [ 14.423153500000069, 35.944377999000039 ], [ 14.420351500000038, 35.943065999000055 ], [ 14.420435500000053, 35.940975499000047 ], [ 14.418857, 35.938824499000077 ], [ 14.420051, 35.936115499000039 ], [ 14.42370150000005, 35.931625499000063 ], [ 14.421882, 35.931152499000063 ], [ 14.420224500000074, 35.928710999000032 ], [ 14.42253050000005, 35.927162499000076 ], [ 14.425242, 35.923831499000073 ], [ 14.418870944000048, 35.921784297000045 ], [ 14.407983928000021, 35.927450631000056 ], [ 14.40248772800004, 35.92737659200003 ], [ 14.408412637000026, 35.917699600000049 ], [ 14.401589, 35.910404499000038 ] ] ] ] } },
{ "type": "Feature", "properties": { "GISCO_ID": "MT_MT02611", "CNTR_CODE": "MT", "LAU_ID": "MT02611", "LAU_NAME": "Ir-Rabat, Għawdex", "cell_coverage": [ [ 0.1191, 0.0048 ], [ 0.0474, 0.002 ] ], "xmin": 14.208333333333329, "xmax": 14.291666666666663, "ymin": 35.999999999999986, "ymax": 36.083333333333321 }, "geometry": { "type": "MultiPolygon", "coordinates": [ [ [ [ 14.237581, 36.052380999000036 ], [ 14.250259, 36.050000499000078 ], [ 14.251719500000036, 36.041718999000068 ], [ 14.249352473000044, 36.035987467000041 ], [ 14.23909, 36.032864999000026 ], [ 14.237521, 36.033261499000048 ], [ 14.23808850000006, 36.035191999000062 ], [ 14.239356, 36.037427499000046 ], [ 14.239849, 36.040997999000069 ], [ 14.237642, 36.040970999000024 ], [ 14.238015, 36.042199499000048 ], [ 14.236231500000031, 36.042199499000048 ], [ 14.233058, 36.040017499000044 ], [ 14.232791, 36.042676499000038 ], [ 14.229719, 36.045929999000066 ], [ 14.229853500000047, 36.048291999000071 ], [ 14.226247500000056, 36.050252499000067 ], [ 14.22678650000006, 36.052689999000052 ], [ 14.231809500000054, 36.052308499000048 ], [ 14.233789500000057, 36.053326999000035 ], [ 14.237581, 36.052380999000036 ] ] ] ] } },
{ "type": "Feature", "properties": { "GISCO_ID": "MT_MT02619", "CNTR_CODE": "MT", "LAU_ID": "MT02619", "LAU_NAME": "Il-Fontana", "cell_coverage": [ [ 0.0006 ], [ 0.0257 ] ], "xmin": 14.208333333333329, "xmax": 14.25, "ymin": 35.999999999999986, "ymax": 36.083333333333321 }, "geometry": { "type": "MultiPolygon", "coordinates": [ [ [ [ 14.232619, 36.036423999000078 ], [ 14.233804500000076, 36.037739999000053 ], [ 14.233058, 36.040017499000044 ], [ 14.236231500000031, 36.042199499000048 ], [ 14.238015, 36.042199499000048 ], [ 14.237642, 36.040970999000024 ], [ 14.239849, 36.040997999000069 ], [ 14.239356, 36.037427499000046 ], [ 14.23808850000006, 36.035191999000062 ], [ 14.237521, 36.033261499000048 ], [ 14.233696161000069, 36.033366551000029 ], [ 14.232619, 36.036423999000078 ] ] ] ] } },
{ "type": "Feature", "properties": { "GISCO_ID": "MT_MT02622", "CNTR_CODE": "MT", "LAU_ID": "MT02622", "LAU_NAME": "Għajnsielem and Comino", "cell_coverage": [ [ 0.1897, 0.1349, 0.0925 ] ], "xmin": 14.25, "xmax": 14.375, "ymin": 35.999999999999993, "ymax": 36.041666666666657 }, "geometry": { "type": "MultiPolygon", "coordinates": [ [ [ [ 14.324043887000073, 36.016281316000061 ], [ 14.327589209000053, 36.01874026400003 ], [ 14.339011147000065, 36.018641325000033 ], [ 14.350098783000021, 36.008931439000037 ], [ 14.345811450000042, 36.00589859300004 ], [ 14.325735229000031, 36.004039270000078 ], [ 14.328221565000035, 36.009566774000064 ], [ 14.317792842000074, 36.013884447000066 ], [ 14.324043887000073, 36.016281316000061 ] ] ], [ [ [ 14.277431500000034, 36.036339999000063 ], [ 14.296654500000045, 36.034031999000035 ], [ 14.298551128000042, 36.029183079000063 ], [ 14.304541485000072, 36.029481335000071 ], [ 14.308435, 36.026349499000048 ], [ 14.301020065000046, 36.026655678000054 ], [ 14.295722663000049, 36.02111833400005 ], [ 14.278526770000042, 36.016490575000034 ], [ 14.271463, 36.020463499000073 ], [ 14.268716, 36.021573499000056 ], [ 14.277431500000034, 36.036339999000063 ] ] ] ] } },
{ "type": "Feature", "properties": { "GISCO_ID": "MT_MT02623", "CNTR_CODE": "MT", "LAU_ID": "MT02623", "LAU_NAME": "L-Għarb", "cell_coverage": [ [ 0.1979, 0.0682 ] ], "xmin": 14.166666666666664, "xmax": 14.25, "ymin": 36.041666666666657, "ymax": 36.083333333333321 }, "geometry": { "type": "MultiPolygon", "coordinates": [ [ [ [ 14.218173, 36.054429499000037 ], [ 14.209226500000057, 36.054738499000052 ], [ 14.204178985000055, 36.059951433000037 ], [ 14.191377500000044, 36.062035999000045 ], [ 14.18490481300006, 36.065863768000042 ], [ 14.185215783000046, 36.073213736000071 ], [ 14.212802, 36.079846499000041 ], [ 14.212442500000066, 36.077008499000044 ], [ 14.210986, 36.075860499000044 ], [ 14.209361500000057, 36.070859499000051 ], [ 14.21101, 36.068326499000079 ], [ 14.213157500000023, 36.066826999000057 ], [ 14.213029, 36.063416999000026 ], [ 14.216231500000049, 36.062771999000063 ], [ 14.215386500000022, 36.059250999000028 ], [ 14.218173, 36.054429499000037 ] ] ] ] } },
{ "type": "Feature", "properties": { "GISCO_ID": "MT_MT02625", "CNTR_CODE": "MT", "LAU_ID": "MT02625", "LAU_NAME": "L-Għasri", "cell_coverage": [ [ 0.2932 ] ], "xmin": 14.208333333333329, "xmax": 14.25, "ymin": 36.041666666666657, "ymax": 36.083333333333321 }, "geometry": { "type": "MultiPolygon", "coordinates": [ [ [ [ 14.218173, 36.054429499000037 ], [ 14.215386500000022, 36.059250999000028 ], [ 14.216231500000049, 36.062771999000063 ], [ 14.213029, 36.063416999000026 ], [ 14.213157500000023, 36.066826999000057 ], [ 14.21101, 36.068326499000079 ], [ 14.209361500000057, 36.070859499000051 ], [ 14.210986, 36.075860499000044 ], [ 14.212442500000066, 36.077008499000044 ], [ 14.212802, 36.079846499000041 ], [ 14.216768, 36.080594999000027 ], [ 14.219058500000074, 36.079636999000058 ], [ 14.221951500000046, 36.079934499000046 ], [ 14.222805, 36.08216999900003 ], [ 14.229456, 36.080296999000041 ], [ 14.231122718000051, 36.077037878000056 ], [ 14.227482485000053, 36.066515091000042 ], [ 14.231927987000063, 36.060698058000071 ], [ 14.236396525000032, 36.060023056000034 ], [ 14.237581, 36.052380999000036 ], [ 14.233789500000057, 36.053326999000035 ], [ 14.231809500000054, 36.052308499000048 ], [ 14.22678650000006, 36.052689999000052 ], [ 14.226247500000056, 36.050252499000067 ], [ 14.22425, 36.052178499000036 ], [ 14.22103, 36.052544999000077 ], [ 14.218173, 36.054429499000037 ] ] ] ] } },
{ "type": "Feature", "properties": { "GISCO_ID": "MT_MT02630", "CNTR_CODE": "MT", "LAU_ID": "MT02630", "LAU_NAME": "Ta' Kerċem", "cell_coverage": [ [ 0.0187, 0.1431 ], [ 0.0492, 0.1019 ] ], "xmin": 14.166666666666664, "xmax": 14.25, "ymin": 35.999999999999986, "ymax": 36.083333333333321 }, "geometry": { "type": "MultiPolygon", "coordinates": [ [ [ [ 14.212792500000035, 36.031197999000028 ], [ 14.21050450000007, 36.031258999000045 ], [ 14.209420500000022, 36.032872499000064 ], [ 14.205320500000028, 36.033409999000071 ], [ 14.2037, 36.034638499000039 ], [ 14.19347, 36.033250499000076 ], [ 14.197640460000059, 36.036119050000025 ], [ 14.198152323000045, 36.040713522000033 ], [ 14.205122368000048, 36.045105327000044 ], [ 14.209226500000057, 36.054738499000052 ], [ 14.218173, 36.054429499000037 ], [ 14.22103, 36.052544999000077 ], [ 14.22425, 36.052178499000036 ], [ 14.226247500000056, 36.050252499000067 ], [ 14.229853500000047, 36.048291999000071 ], [ 14.229719, 36.045929999000066 ], [ 14.232791, 36.042676499000038 ], [ 14.233058, 36.040017499000044 ], [ 14.233804500000076, 36.037739999000053 ], [ 14.232619, 36.036423999000078 ], [ 14.223872782000058, 36.036717466000027 ], [ 14.212792500000035, 36.031197999000028 ] ] ] ] } },
{ "type": "Feature", "properties": { "GISCO_ID": "MT_MT02642", "CNTR_CODE": "MT", "LAU_ID": "MT02642", "LAU_NAME": "Il-Munxar", "cell_coverage": [ [ 0.1667 ] ], "xmin": 14.208333333333329, "xmax": 14.25, "ymin": 35.999999999999993, "ymax": 36.041666666666657 }, "geometry": { "type": "MultiPolygon", "coordinates": [ [ [ [ 14.212792500000035, 36.031197999000028 ], [ 14.223872782000058, 36.036717466000027 ], [ 14.232619, 36.036423999000078 ], [ 14.233696161000069, 36.033366551000029 ], [ 14.237521, 36.033261499000048 ], [ 14.23909, 36.032864999000026 ], [ 14.238111500000059, 36.030434999000079 ], [ 14.230644, 36.02120349900008 ], [ 14.218951278000077, 36.021431104000044 ], [ 14.213074187000075, 36.027032094000049 ], [ 14.212792500000035, 36.031197999000028 ] ] ] ] } },
{ "type": "Feature", "properties": { "GISCO_ID": "MT_MT02648", "CNTR_CODE": "MT", "LAU_ID": "MT02648", "LAU_NAME": "Il-Qala", "cell_coverage": [ [ 0.0693, 0 ], [ 0.2527, 0.0031 ] ], "xmin": 14.291666666666664, "xmax": 14.375, "ymin": 35.999999999999986, "ymax": 36.083333333333321 }, "geometry": { "type": "MultiPolygon", "coordinates": [ [ [ [ 14.308435, 36.026349499000048 ], [ 14.304541485000072, 36.029481335000071 ], [ 14.298551128000042, 36.029183079000063 ], [ 14.296654500000045, 36.034031999000035 ], [ 14.302614348000077, 36.035833597000078 ], [ 14.30530238800003, 36.04353847200008 ], [ 14.315234500000031, 36.049420499000064 ], [ 14.321693326000059, 36.048318854000058 ], [ 14.332849863000035, 36.038616457000046 ], [ 14.335261390000028, 36.032650802000035 ], [ 14.320091612000056, 36.026321091000057 ], [ 14.308435, 36.026349499000048 ] ] ] ] } },
{ "type": "Feature", "properties": { "GISCO_ID": "MT_MT02654", "CNTR_CODE": "MT", "LAU_ID": "MT02654", "LAU_NAME": "San Lawrenz", "cell_coverage": [ [ 0.171, 0.0008 ], [ 0.0379, 0 ] ], "xmin": 14.166666666666664, "xmax": 14.25, "ymin": 35.999999999999986, "ymax": 36.083333333333321 }, "geometry": { "type": "MultiPolygon", "coordinates": [ [ [ [ 14.19347, 36.033250499000076 ], [ 14.187465051000061, 36.036577827000031 ], [ 14.192455509000069, 36.047032695000041 ], [ 14.189083780000033, 36.053272543000048 ], [ 14.191377500000044, 36.062035999000045 ], [ 14.204178985000055, 36.059951433000037 ], [ 14.209226500000057, 36.054738499000052 ], [ 14.205122368000048, 36.045105327000044 ], [ 14.198152323000045, 36.040713522000033 ], [ 14.197640460000059, 36.036119050000025 ], [ 14.19347, 36.033250499000076 ] ] ] ] } },
{ "type": "Feature", "properties": { "GISCO_ID": "MT_MT02656", "CNTR_CODE": "MT", "LAU_ID": "MT02656", "LAU_NAME": "Ta' Sannat", "cell_coverage": [ [ 0.0948, 0.1235 ] ], "xmin": 14.208333333333329, "xmax": 14.291666666666663, "ymin": 35.999999999999993, "ymax": 36.041666666666657 }, "geometry": { "type": "MultiPolygon", "coordinates": [ [ [ [ 14.238111500000059, 36.030434999000079 ], [ 14.250799949000054, 36.029265748000057 ], [ 14.268716, 36.021573499000056 ], [ 14.271463, 36.020463499000073 ], [ 14.271225827000023, 36.016274397000075 ], [ 14.262031485000023, 36.012452619000044 ], [ 14.249996012000054, 36.018431885000041 ], [ 14.230644, 36.02120349900008 ], [ 14.238111500000059, 36.030434999000079 ] ] ] ] } },
{ "type": "Feature", "properties": { "GISCO_ID": "MT_MT02663", "CNTR_CODE": "MT", "LAU_ID": "MT02663", "LAU_NAME": "Ix-Xagħra", "cell_coverage": [ [ 0.418 ], [ 0.0158 ] ], "xmin": 14.25, "xmax": 14.291666666666666, "ymin": 35.999999999999986, "ymax": 36.083333333333321 }, "geometry": { "type": "MultiPolygon", "coordinates": [ [ [ [ 14.250259, 36.050000499000078 ], [ 14.252178633000028, 36.058766510000055 ], [ 14.264484251000056, 36.065212847000055 ], [ 14.265192500000069, 36.072804999000027 ], [ 14.274802463000071, 36.065699672000051 ], [ 14.28624, 36.06191749900006 ], [ 14.277281, 36.038277999000059 ], [ 14.273468, 36.038949499000068 ], [ 14.270474500000034, 36.042138499000032 ], [ 14.268573, 36.042492999000046 ], [ 14.260345500000028, 36.040474999000025 ], [ 14.256262, 36.040535999000042 ], [ 14.251719500000036, 36.041718999000068 ], [ 14.250259, 36.050000499000078 ] ] ] ] } },
{ "type": "Feature", "properties": { "GISCO_ID": "MT_MT02664", "CNTR_CODE": "MT", "LAU_ID": "MT02664", "LAU_NAME": "Ix-Xewkija", "cell_coverage": [ [ 0, 0.0016 ], [ 0.0304, 0.2203 ] ], "xmin": 14.208333333333329, "xmax": 14.291666666666663, "ymin": 35.999999999999986, "ymax": 36.083333333333321 }, "geometry": { "type": "MultiPolygon", "coordinates": [ [ [ [ 14.268716, 36.021573499000056 ], [ 14.250799949000054, 36.029265748000057 ], [ 14.238111500000059, 36.030434999000079 ], [ 14.23909, 36.032864999000026 ], [ 14.249352473000044, 36.035987467000041 ], [ 14.251719500000036, 36.041718999000068 ], [ 14.256262, 36.040535999000042 ], [ 14.260345500000028, 36.040474999000025 ], [ 14.268573, 36.042492999000046 ], [ 14.270474500000034, 36.042138499000032 ], [ 14.273468, 36.038949499000068 ], [ 14.277281, 36.038277999000059 ], [ 14.277431500000034, 36.036339999000063 ], [ 14.268716, 36.021573499000056 ] ] ] ] } },
{ "type": "Feature", "properties": { "GISCO_ID": "MT_MT02666", "CNTR_CODE": "MT", "LAU_ID": "MT02666", "LAU_NAME": "Iż-Żebbuġ", "cell_coverage": [ [ 0.3111, 0.1194 ] ], "xmin": 14.208333333333329, "xmax": 14.291666666666663, "ymin": 36.041666666666657, "ymax": 36.083333333333321 }, "geometry": { "type": "MultiPolygon", "coordinates": [ [ [ [ 14.265192500000069, 36.072804999000027 ], [ 14.264484251000056, 36.065212847000055 ], [ 14.252178633000028, 36.058766510000055 ], [ 14.250259, 36.050000499000078 ], [ 14.237581, 36.052380999000036 ], [ 14.236396525000032, 36.060023056000034 ], [ 14.231927987000063, 36.060698058000071 ], [ 14.227482485000053, 36.066515091000042 ], [ 14.231122718000051, 36.077037878000056 ], [ 14.229456, 36.080296999000041 ], [ 14.235391831000072, 36.082189977000041 ], [ 14.250394960000051, 36.079690585000037 ], [ 14.258841683000071, 36.072603493000031 ], [ 14.265192500000069, 36.072804999000027 ] ] ] ] } },
{ "type": "Feature", "properties": { "GISCO_ID": "MT_MT01105", "CNTR_CODE": "MT", "LAU_ID": "MT01105", "LAU_NAME": "Bormla", "cell_coverage": [ [ 0.0565 ] ], "xmin": 14.5, "xmax": 14.541666666666666, "ymin": 35.875, "ymax": 35.916666666666657 }, "geometry": { "type": "MultiPolygon", "coordinates": [ [ [ [ 14.514489500000025, 35.877437999000051 ], [ 14.51424, 35.883064499000056 ], [ 14.516685351000035, 35.883836345000077 ], [ 14.514114, 35.889324499000054 ], [ 14.519856, 35.884276999000065 ], [ 14.521155500000077, 35.885200999000062 ], [ 14.52926750000006, 35.880142499000044 ], [ 14.526985, 35.87675899900006 ], [ 14.514489500000025, 35.877437999000051 ] ] ] ] } },
{ "type": "Feature", "properties": { "GISCO_ID": "MT_MT01162", "CNTR_CODE": "MT", "LAU_ID": "MT01162", "LAU_NAME": "Ħal Tarxien", "cell_coverage": [ [ 0.0482 ] ], "xmin": 14.5, "xmax": 14.541666666666666, "ymin": 35.833333333333321, "ymax": 35.875 }, "geometry": { "type": "MultiPolygon", "coordinates": [ [ [ [ 14.51454, 35.861834999000052 ], [ 14.510072, 35.863239499000031 ], [ 14.506624500000044, 35.865283999000042 ], [ 14.509459508000077, 35.870062472000029 ], [ 14.513275500000077, 35.871162499000036 ], [ 14.515478500000029, 35.871318999000039 ], [ 14.518244, 35.869998999000074 ], [ 14.517231500000037, 35.86645149900005 ], [ 14.520708500000069, 35.866962499000067 ], [ 14.518647500000043, 35.864127999000061 ], [ 14.515515500000049, 35.861492499000065 ], [ 14.51454, 35.861834999000052 ] ] ] ] } },
{ "type": "Feature", "properties": { "GISCO_ID": "MT_MT01253", "CNTR_CODE": "MT", "LAU_ID": "MT01253", "LAU_NAME": "San Ġwann", "cell_coverage": [ [ 0.0002 ], [ 0.1545 ] ], "xmin": 14.458333333333329, "xmax": 14.5, "ymin": 35.875, "ymax": 35.958333333333321 }, "geometry": { "type": "MultiPolygon", "coordinates": [ [ [ [ 14.489618500000063, 35.909126499000024 ], [ 14.489895596000054, 35.907352737000053 ], [ 14.487236, 35.904392499000039 ], [ 14.473564500000066, 35.902645499000073 ], [ 14.463303500000052, 35.904743499000062 ], [ 14.462779500000067, 35.912406999000041 ], [ 14.46415, 35.915313499000035 ], [ 14.467342, 35.915290999000035 ], [ 14.471754500000031, 35.912647499000059 ], [ 14.476889, 35.913730999000052 ], [ 14.478030500000045, 35.915668499000049 ], [ 14.481621, 35.917022999000039 ], [ 14.484174500000051, 35.916358999000067 ], [ 14.483759108000072, 35.912454946000025 ], [ 14.489618500000063, 35.909126499000024 ] ] ] ] } },
{ "type": "Feature", "properties": { "GISCO_ID": "MT_MT01336", "CNTR_CODE": "MT", "LAU_ID": "MT01336", "LAU_NAME": "Marsaxlokk", "cell_coverage": [ [ 0.0531, 0.1761 ], [ 0.0011, 0.0537 ] ], "xmin": 14.5, "xmax": 14.583333333333334, "ymin": 35.79166666666665, "ymax": 35.875 }, "geometry": { "type": "MultiPolygon", "coordinates": [ [ [ [ 14.527912, 35.843871999000044 ], [ 14.526729, 35.846770999000057 ], [ 14.547042325000064, 35.846474329000046 ], [ 14.552034500000048, 35.849387999000044 ], [ 14.567220500000076, 35.845496999000034 ], [ 14.571545361000062, 35.841089426000053 ], [ 14.562180867000052, 35.84088728200004 ], [ 14.563438975000054, 35.827993184000036 ], [ 14.560860045000027, 35.81984258600005 ], [ 14.548788171000069, 35.838119726000059 ], [ 14.54477533000005, 35.838688843000057 ], [ 14.545565683000063, 35.831371298000079 ], [ 14.541611500000045, 35.82993299900005 ], [ 14.539728495000077, 35.836092362000045 ], [ 14.534440433000043, 35.841764694000062 ], [ 14.527912, 35.843871999000044 ] ] ] ] } },
{ "type": "Feature", "properties": { "GISCO_ID": "MT_MT01413", "CNTR_CODE": "MT", "LAU_ID": "MT01413", "LAU_NAME": "Ħal Balzan", "cell_coverage": [ [ 0.0321 ] ], "xmin": 14.416666666666664, "xmax": 14.45833333333333, "ymin": 35.875, "ymax": 35.916666666666657 }, "geometry": { "type": "MultiPolygon", "coordinates": [ [ [ [ 14.446071, 35.897163999000043 ], [ 14.452302, 35.902202999000053 ], [ 14.456033830000024, 35.898835640000073 ], [ 14.456715, 35.892807499000071 ], [ 14.45117698200005, 35.893383209000035 ], [ 14.44890289500006, 35.896536655000034 ], [ 14.446071, 35.897163999000043 ] ] ] ] } },
{ "type": "Feature", "properties": { "GISCO_ID": "MT_MT01544", "CNTR_CODE": "MT", "LAU_ID": "MT01544", "LAU_NAME": "In-Naxxar", "cell_coverage": [ [ 0.5615, 0.017 ], [ 0.0889, 0 ] ], "xmin": 14.416666666666664, "xmax": 14.5, "ymin": 35.875, "ymax": 35.958333333333321 }, "geometry": { "type": "MultiPolygon", "coordinates": [ [ [ [ 14.463280500000053, 35.933567499000048 ], [ 14.459603500000071, 35.93236949900006 ], [ 14.455076, 35.93330049900004 ], [ 14.448694450000062, 35.928670448000048 ], [ 14.448376406000023, 35.921194320000041 ], [ 14.451327500000048, 35.916339999000058 ], [ 14.448513500000047, 35.914409999000043 ], [ 14.450093500000037, 35.909118999000043 ], [ 14.447334, 35.90646749900003 ], [ 14.449137, 35.904747499000052 ], [ 14.442487, 35.904609999000058 ], [ 14.438405500000044, 35.905662999000072 ], [ 14.432325357000025, 35.919258847000037 ], [ 14.425242, 35.923831499000073 ], [ 14.42253050000005, 35.927162499000076 ], [ 14.420224500000074, 35.928710999000032 ], [ 14.421882, 35.931152499000063 ], [ 14.42370150000005, 35.931625499000063 ], [ 14.420051, 35.936115499000039 ], [ 14.418857, 35.938824499000077 ], [ 14.420435500000053, 35.940975499000047 ], [ 14.420351500000038, 35.943065999000055 ], [ 14.423153500000069, 35.944377999000039 ], [ 14.425696, 35.948437499000079 ], [ 14.43694802400006, 35.954069874000027 ], [ 14.446051580000073, 35.949810619000061 ], [ 14.449681816000066, 35.944725772000027 ], [ 14.454053115000022, 35.94615708300006 ], [ 14.455677933000061, 35.941247714000042 ], [ 14.463805, 35.937049999000067 ], [ 14.463280500000053, 35.933567499000048 ] ] ] ] } },
{ "type": "Feature", "properties": { "GISCO_ID": "MT_MT02643", "CNTR_CODE": "MT", "LAU_ID": "MT02643", "LAU_NAME": "In-Nadur", "cell_coverage": [ [ 0.1145, 0.1978 ], [ 0.0498, 0.0476 ] ], "xmin": 14.25, "xmax": 14.333333333333334, "ymin": 35.999999999999986, "ymax": 36.083333333333321 }, "geometry": { "type": "MultiPolygon", "coordinates": [ [ [ [ 14.277281, 36.038277999000059 ], [ 14.28624, 36.06191749900006 ], [ 14.290400947000023, 36.065473638000071 ], [ 14.300439457000039, 36.057481135000046 ], [ 14.30985348300004, 36.058854452000048 ], [ 14.315234500000031, 36.049420499000064 ], [ 14.30530238800003, 36.04353847200008 ], [ 14.302614348000077, 36.035833597000078 ], [ 14.296654500000045, 36.034031999000035 ], [ 14.277431500000034, 36.036339999000063 ], [ 14.277281, 36.038277999000059 ] ] ] ] } }
]
}
